<?xml version="1.0" encoding="utf-8"?>
<kml xmlns="http://www.opengis.net/kml/2.2">
  <Document>
    <name>13/4556/2776.kml</name>
    <description></description>
    <Style>
      <ListStyle id="hideChildren">
        <listItemType>checkHideChildren</listItemType>
      </ListStyle>
    </Style>
    <Region>
      <LatLonAltBox>
        <north>50.06419173665910</north>
        <south>50.03597367219550</south>
        <east>20.25878906250001</east>
        <west>20.21484375000002</west>
      </LatLonAltBox>
      <Lod>
        <minLodPixels>128</minLodPixels>
        <maxLodPixels>-1</maxLodPixels>
      </Lod>
    </Region>
    <GroundOverlay>
      <drawOrder>26</drawOrder>
      <Icon>
        <href>2776.png</href>
      </Icon>
      <LatLonBox>
        <north>50.06419173665910</north>
        <south>50.03597367219550</south>
        <east>20.25878906250001</east>
        <west>20.21484375000002</west>
      </LatLonBox>
    </GroundOverlay>
</Document>
</kml>