{"type": "FeatureCollection", "features": [{"type": "Feature", "geometry": {"type": "Polygon", "coordinates": [[[18.8915418, 50.2331281], [18.8969434, 50.2193885], [18.9080619, 50.221213], [18.908913, 50.2209594], [18.9096367, 50.2214671], [18.9135683, 50.2221209], [18.9152919, 50.2204762], [18.9149862, 50.2195243], [18.9156256, 50.2188233], [18.9157354, 50.2171911], [18.9169702, 50.2159151], [18.9164228, 50.2147671], [18.9186602, 50.2139918], [18.9185952, 50.2116467], [18.9201994, 50.210333], [18.9227754, 50.2093942], [18.9266597, 50.1997701], [18.9308795, 50.1975684], [18.9271101, 50.195482], [18.9294294, 50.1951707], [18.9295173, 50.1939208], [18.9330033, 50.1950151], [18.9353318, 50.194822], [18.9357155, 50.192444], [18.9363458, 50.1914219], [18.9339721, 50.1911647], [18.9338933, 50.1901066], [18.9330048, 50.1886287], [18.9312565, 50.1878294], [18.931095, 50.1871934], [18.9336061, 50.1872328], [18.9338825, 50.1862625], [18.9322084, 50.1847118], [18.9299536, 50.1848197], [18.9301933, 50.1839525], [18.9335266, 50.1834503], [18.9343124, 50.1843258], [18.9348943, 50.1841782], [18.9352568, 50.1814579], [18.9339342, 50.1809941], [18.9353803, 50.1808844], [18.9356031, 50.1803769], [18.9336482, 50.1786086], [18.9334574, 50.1776914], [18.9360042, 50.1770856], [18.9375988, 50.1776738], [18.9388299, 50.1754192], [18.938649, 50.1749857], [18.9392161, 50.1749821], [18.9383461, 50.1722947], [18.9405099, 50.172286], [18.9417171, 50.1748521], [18.9438932, 50.1746418], [18.94406, 50.1727983], [18.9435047, 50.1725358], [18.9466791, 50.170895], [18.9469332, 50.1704335], [18.9453125, 50.1701714], [18.9461114, 50.169886], [18.9468553, 50.1689507], [18.9468303, 50.1682532], [18.9481456, 50.1668667], [18.9469558, 50.1656083], [18.944535, 50.1642018], [18.9425731, 50.1637871], [18.9418286, 50.1631303], [18.9431125, 50.1618665], [18.9406687, 50.1604679], [18.9390957, 50.160357], [18.9375644, 50.1592651], [18.9333281, 50.1604513], [18.9317048, 50.1600818], [18.9309585, 50.1583826], [18.93448, 50.1586231], [18.9361328, 50.1577423], [18.9356025, 50.1571173], [18.9368585, 50.1556923], [18.9365931, 50.1540924], [18.9379852, 50.155675], [18.9392098, 50.1561633], [18.9401443, 50.1574707], [18.9421304, 50.1562807], [18.9458376, 50.1558611], [18.9472025, 50.1550546], [18.9480009, 50.1558733], [18.9488647, 50.1555793], [18.9509653, 50.1576959], [18.9492477, 50.1580072], [18.9494849, 50.1584694], [18.9481971, 50.1594913], [18.9490034, 50.1599697], [18.9510278, 50.1586455], [18.9523256, 50.1586071], [18.9526016, 50.1590833], [18.9537308, 50.1592235], [18.9571768, 50.1591257], [18.9584936, 50.1595999], [18.9578936, 50.1605857], [18.959887, 50.1600411], [18.9632157, 50.1621338], [18.9657692, 50.1630427], [18.9675214, 50.1624418], [18.9675721, 50.1620382], [18.9667067, 50.1616302], [18.9682713, 50.1613563], [18.9692857, 50.1624445], [18.9704676, 50.1621744], [18.9738381, 50.1639838], [18.975935, 50.1641244], [18.979266, 50.1658377], [18.9810061, 50.1672941], [18.986592, 50.1672754], [18.987217, 50.167679], [18.9921759, 50.1653822], [18.9936045, 50.1653539], [18.9942892, 50.1661719], [18.9955761, 50.1662999], [18.9944256, 50.1671217], [18.9918394, 50.1677291], [18.990723, 50.1705706], [19.0222296, 50.1758348], [19.0229643, 50.1744705], [19.0223191, 50.1736818], [19.0224574, 50.1731467], [19.0241448, 50.1690304], [19.0269141, 50.1690818], [19.0298688, 50.169959], [19.0302963, 50.1680641], [19.0378463, 50.1643077], [19.039708, 50.1619257], [19.039735, 50.1611102], [19.0361287, 50.1563517], [19.0361831, 50.1552722], [19.0379232, 50.1525446], [19.0379613, 50.149367], [19.0373417, 50.1464409], [19.0381961, 50.1448163], [19.0401656, 50.1435346], [19.0451549, 50.1443797], [19.0470117, 50.1397289], [19.0479106, 50.1398527], [19.0491758, 50.1392744], [19.0524699, 50.1394489], [19.0535154, 50.1401401], [19.0564913, 50.14004], [19.0579249, 50.1394988], [19.0605564, 50.1406872], [19.06111, 50.1404963], [19.0620448, 50.1389134], [19.0641638, 50.1381735], [19.069001, 50.1346754], [19.0697944, 50.1333364], [19.0697492, 50.1319247], [19.0709205, 50.1306517], [19.0739183, 50.1300628], [19.0767111, 50.1306079], [19.0787745, 50.1303681], [19.0829418, 50.1319272], [19.0820206, 50.1334271], [19.0824545, 50.133729], [19.0815073, 50.1339895], [19.0796067, 50.1318801], [19.0765949, 50.1316526], [19.0745813, 50.1339517], [19.0754158, 50.1343005], [19.0769014, 50.1369501], [19.0755019, 50.1374804], [19.0772586, 50.1383232], [19.0779425, 50.1393832], [19.0792804, 50.1391373], [19.0794312, 50.1411475], [19.0805026, 50.1421715], [19.086341, 50.1419598], [19.0900109, 50.1429281], [19.0903643, 50.1437995], [19.0900286, 50.1439816], [19.0905122, 50.1444248], [19.088209, 50.146273], [19.0885653, 50.1466038], [19.0900966, 50.1462138], [19.0899512, 50.1471517], [19.0952178, 50.1464787], [19.0950604, 50.1468386], [19.0960955, 50.1470838], [19.0971525, 50.1468036], [19.097768, 50.1461715], [19.0971832, 50.1451927], [19.100565, 50.1441363], [19.09872, 50.1433808], [19.0982054, 50.1426782], [19.0988622, 50.1422991], [19.0990497, 50.1428841], [19.1012222, 50.1435471], [19.1042629, 50.1469182], [19.1045534, 50.1481], [19.1064159, 50.1494873], [19.1067063, 50.1503566], [19.1053821, 50.1513972], [19.104955, 50.1530816], [19.1033071, 50.1536729], [19.1016961, 50.1553484], [19.1033346, 50.1567487], [19.1061402, 50.1562211], [19.1069158, 50.157323], [19.1049097, 50.1577307], [19.1051437, 50.1581665], [19.1037301, 50.1595851], [19.1042151, 50.1598949], [19.1032425, 50.1598103], [19.1029457, 50.1606144], [19.1018517, 50.1607855], [19.1035286, 50.1610528], [19.102845, 50.1627058], [19.1040019, 50.1625879], [19.1047607, 50.1650147], [19.1062575, 50.1646548], [19.1065527, 50.1639325], [19.1082374, 50.162752], [19.1083509, 50.1618972], [19.1092905, 50.1608065], [19.1084442, 50.1592294], [19.1057489, 50.1596243], [19.1080202, 50.1586544], [19.1100107, 50.1609039], [19.1100399, 50.1622021], [19.1080519, 50.1675059], [19.1067649, 50.1686688], [19.1061786, 50.1707664], [19.1041132, 50.1725302], [19.1046793, 50.1749011], [19.1043148, 50.1756928], [19.1032643, 50.1756828], [19.1031, 50.1784539], [19.1001226, 50.1826724], [19.1003616, 50.1832584], [19.0996668, 50.1849315], [19.0981743, 50.1856382], [19.0981866, 50.1871103], [19.0971901, 50.1886972], [19.096531, 50.1887599], [19.096489, 50.1893547], [19.0953756, 50.1897026], [19.0953125, 50.1902238], [19.0937337, 50.1907642], [19.0927983, 50.1905989], [19.0919203, 50.191561], [19.0903065, 50.1920293], [19.091084, 50.1931585], [19.0894009, 50.1936804], [19.0906064, 50.193526], [19.0903084, 50.1943085], [19.0966782, 50.1952921], [19.0941501, 50.1979715], [19.0924412, 50.1990477], [19.0935589, 50.1991483], [19.0932324, 50.2000354], [19.0949461, 50.2015306], [19.0943311, 50.2020662], [19.0958449, 50.2033872], [19.094186, 50.2035896], [19.0941977, 50.2039849], [19.0935774, 50.2041426], [19.0933912, 50.2037665], [19.0858546, 50.2046731], [19.0738551, 50.20336], [19.0674313, 50.2039009], [19.0685644, 50.2047486], [19.068394, 50.2058134], [19.0688762, 50.206106], [19.0770079, 50.2064623], [19.0822721, 50.207976], [19.0916253, 50.2097321], [19.1028871, 50.2393923], [19.1020965, 50.2396826], [19.1016793, 50.241847], [19.1010315, 50.2426006], [19.1031284, 50.2433966], [19.10138, 50.2434884], [19.1009557, 50.2437798], [19.1012134, 50.2446682], [19.1004282, 50.2448341], [19.1003085, 50.244473], [19.100382, 50.2452228], [19.1014608, 50.2459226], [19.1010585, 50.2463316], [19.101373, 50.2470338], [19.1050479, 50.2480751], [19.1083249, 50.2496942], [19.1105624, 50.250032], [19.1112495, 50.2530703], [19.1132775, 50.253153], [19.1151632, 50.2572136], [19.1154821, 50.2575745], [19.1163527, 50.2571742], [19.1179517, 50.2604318], [19.1188108, 50.2635338], [19.1220164, 50.2668606], [19.1244247, 50.26598], [19.115279, 50.2698432], [19.1136972, 50.2712705], [19.1130265, 50.2706194], [19.1124989, 50.2708638], [19.1125545, 50.2714311], [19.1122607, 50.2709758], [19.1094985, 50.2721408], [19.0991151, 50.2781758], [19.0980098, 50.2793181], [19.0970419, 50.2823496], [19.0896235, 50.2817249], [19.0854775, 50.2804199], [19.0738347, 50.2807748], [19.0730011, 50.281566], [19.0742763, 50.2838577], [19.0721156, 50.288179], [19.0713127, 50.2943357], [19.0703144, 50.2949473], [19.0712171, 50.295114], [19.0711353, 50.2955157], [19.0693724, 50.2955027], [19.0693432, 50.2975727], [19.0627396, 50.2965175], [19.0611009, 50.2954039], [19.0587798, 50.2946463], [19.0578559, 50.2936312], [19.0579202, 50.2923528], [19.0590099, 50.291187], [19.0593663, 50.2899072], [19.0590144, 50.2893566], [19.0555757, 50.289605], [19.0552175, 50.2878931], [19.0570022, 50.2870901], [19.055198, 50.2832243], [19.0527979, 50.2807414], [19.0514329, 50.2761753], [19.0505837, 50.2748385], [19.0406367, 50.2790033], [19.036895, 50.2780241], [19.0338038, 50.2784535], [19.0312798, 50.2856585], [19.0295935, 50.2863143], [19.0230663, 50.2871785], [19.017777, 50.2902025], [19.0184222, 50.291736], [19.0171, 50.2923461], [19.0012777, 50.2962992], [19.0044462, 50.2951195], [19.0062327, 50.2878842], [19.0048037, 50.2873679], [19.0048736, 50.286426], [19.0042745, 50.286156], [19.0055478, 50.285668], [19.0059364, 50.2850085], [19.0066969, 50.2850132], [19.0063046, 50.2846753], [19.0068289, 50.2841131], [19.0066727, 50.2821033], [19.0060903, 50.2820702], [19.0065965, 50.2818836], [19.0063682, 50.2812664], [19.0044257, 50.2808763], [19.0045828, 50.2795855], [19.0053015, 50.2793931], [19.0045468, 50.2794398], [19.0046497, 50.2789889], [19.0030168, 50.2791199], [18.9920958, 50.2721122], [18.9749613, 50.2831159], [18.9747291, 50.283864], [18.9711836, 50.2857111], [18.9695906, 50.2871221], [18.9680832, 50.2875889], [18.9647251, 50.2845298], [18.9647331, 50.2838877], [18.9639416, 50.2840597], [18.9623447, 50.2804033], [18.9615678, 50.2803626], [18.960983, 50.2791575], [18.9612793, 50.2782587], [18.9608423, 50.2736025], [18.9587925, 50.2740282], [18.9557222, 50.2706911], [18.9550008, 50.2675588], [18.9554981, 50.265483], [18.9541672, 50.2626076], [18.9569496, 50.2552395], [18.9560916, 50.2541024], [18.958571, 50.2510178], [18.9590701, 50.2491556], [18.9588427, 50.2470529], [18.956373, 50.2443861], [18.9562376, 50.2424035], [18.9556102, 50.2417686], [18.9561486, 50.2391289], [18.954422, 50.2376883], [18.9525223, 50.2372164], [18.9500101, 50.2353965], [18.9499782, 50.2344064], [18.9486638, 50.2329717], [18.944513, 50.231451], [18.9409664, 50.2315873], [18.9312551, 50.2296949], [18.9298387, 50.2298569], [18.9286288, 50.2293186], [18.9244291, 50.229068], [18.9226224, 50.2295989], [18.9194558, 50.2293256], [18.9184742, 50.2297343], [18.9153156, 50.2286817], [18.9148961, 50.229015], [18.912996, 50.228702], [18.9127874, 50.2282472], [18.9123088, 50.2283327], [18.91239, 50.2286949], [18.911171, 50.2286744], [18.9101033, 50.2279975], [18.9087155, 50.2285056], [18.9091343, 50.2288311], [18.9083388, 50.2287649], [18.908564, 50.2291631], [18.9078524, 50.2291679], [18.9079273, 50.2288285], [18.9065309, 50.2290928], [18.9064235, 50.2295312], [18.9057559, 50.2292074], [18.9053112, 50.2297105], [18.9030133, 50.2298854], [18.9019671, 50.2310494], [18.9020206, 50.2317469], [18.8998956, 50.2321221], [18.9002747, 50.2325457], [18.8996035, 50.2330256], [18.9000671, 50.2330977], [18.8984947, 50.2337074], [18.8990066, 50.2338911], [18.8983955, 50.2342248], [18.8988081, 50.2345408], [18.8982247, 50.234428], [18.8984541, 50.2348709], [18.8970989, 50.2347563], [18.8971621, 50.2355086], [18.8961825, 50.2354103], [18.8957439, 50.2360075], [18.8951706, 50.2356333], [18.894517, 50.235963], [18.8919889, 50.2347865], [18.8916035, 50.2340821], [18.8926574, 50.2342098], [18.8915418, 50.2331281]]]}, "properties": {"name": "Katowice", "osm_id": 332321, "source": "© OpenStreetMap contributors, ODbL"}}, {"type": "Feature", "geometry": {"type": "Polygon", "coordinates": [[[19.0713127, 50.2943357], [19.0721688, 50.2879901], [19.0742763, 50.2838577], [19.0730011, 50.281566], [19.0738347, 50.2807748], [19.0854775, 50.2804199], [19.0896235, 50.2817249], [19.0970419, 50.2823496], [19.0977985, 50.2797808], [19.0987061, 50.2784829], [19.1094985, 50.2721408], [19.1122607, 50.2709758], [19.1125545, 50.2714311], [19.1124989, 50.2708638], [19.1130265, 50.2706194], [19.1136972, 50.2712705], [19.115279, 50.2698432], [19.1335224, 50.2620664], [19.1370864, 50.2586856], [19.1392904, 50.25248], [19.1400006, 50.2484982], [19.1478886, 50.2354368], [19.1578385, 50.2290074], [19.1605369, 50.2261664], [19.1622542, 50.2269589], [19.1639014, 50.2266932], [19.1640492, 50.2259512], [19.1650592, 50.2255221], [19.165644, 50.2273155], [19.1664663, 50.227251], [19.1656862, 50.2278733], [19.16732, 50.2272809], [19.1963631, 50.2281346], [19.2011785, 50.2307346], [19.2081333, 50.2377995], [19.21518, 50.2398246], [19.2137307, 50.2415496], [19.2091366, 50.2433618], [19.2046821, 50.2487095], [19.2023247, 50.2483238], [19.2021001, 50.2487756], [19.2078244, 50.2526348], [19.2121709, 50.2536861], [19.2132622, 50.2524637], [19.214261, 50.2527837], [19.2158791, 50.2542788], [19.218379, 50.2550777], [19.2160454, 50.2554555], [19.216529, 50.2560301], [19.2195711, 50.2567226], [19.2208364, 50.2579029], [19.2233651, 50.2581169], [19.2255593, 50.2592388], [19.2250432, 50.2600495], [19.2256313, 50.2606289], [19.2263066, 50.2605217], [19.2279936, 50.2617927], [19.2295183, 50.261784], [19.2302553, 50.260589], [19.2328667, 50.2609067], [19.2335551, 50.2600177], [19.233044, 50.2587276], [19.2339865, 50.257985], [19.2368568, 50.2578327], [19.2371836, 50.2587392], [19.2389465, 50.2585794], [19.2401376, 50.2574335], [19.2393713, 50.2564937], [19.2399061, 50.2563404], [19.2405185, 50.2563829], [19.240513, 50.2574063], [19.2437723, 50.256679], [19.2446679, 50.2573186], [19.2443405, 50.2573855], [19.2468498, 50.2575135], [19.2475796, 50.2556888], [19.2482386, 50.2559494], [19.249159, 50.2574483], [19.2529244, 50.256918], [19.2548969, 50.2560412], [19.2573622, 50.2560813], [19.2586093, 50.2552375], [19.2593565, 50.2559662], [19.2631155, 50.2565563], [19.2683949, 50.2555916], [19.269263, 50.2560771], [19.2698917, 50.2573743], [19.2733013, 50.2580273], [19.2749094, 50.2593581], [19.2785751, 50.2587504], [19.2810472, 50.2572933], [19.2824778, 50.25701], [19.2820112, 50.2566118], [19.2841187, 50.2551323], [19.291632, 50.2566697], [19.29377, 50.2578793], [19.2956942, 50.2564989], [19.2979003, 50.257523], [19.3004328, 50.2569403], [19.3023516, 50.2577322], [19.3065231, 50.2554891], [19.3073482, 50.2557345], [19.3077669, 50.2568599], [19.3091414, 50.2572358], [19.3106309, 50.2560596], [19.3119132, 50.2559832], [19.3127694, 50.2561998], [19.3126583, 50.2565877], [19.3106339, 50.2576404], [19.3119464, 50.2582653], [19.3115663, 50.2699676], [19.3164406, 50.2707798], [19.3179524, 50.2717729], [19.317924, 50.2722655], [19.3170341, 50.2725014], [19.3155497, 50.272015], [19.3114556, 50.2721588], [19.3113783, 50.2749823], [19.3155696, 50.2752953], [19.3157251, 50.2759732], [19.314314, 50.2774222], [19.3041829, 50.2778097], [19.3049134, 50.2795674], [19.3063039, 50.2809208], [19.3032901, 50.2813175], [19.286454, 50.2801159], [19.286396, 50.2804912], [19.2806298, 50.2804568], [19.2838746, 50.2856138], [19.2834333, 50.2867527], [19.2838638, 50.287528], [19.2846355, 50.287429], [19.285135, 50.2916934], [19.2847556, 50.2931566], [19.2808661, 50.2933198], [19.2772353, 50.2957193], [19.2756903, 50.296143], [19.2711072, 50.296944], [19.2646507, 50.2971779], [19.2608115, 50.2966852], [19.2569453, 50.2933834], [19.2528133, 50.2915544], [19.2524272, 50.2917792], [19.2537779, 50.2949362], [19.2543298, 50.2948616], [19.2540649, 50.3031803], [19.2531165, 50.3040063], [19.2456024, 50.3037132], [19.2453214, 50.3027796], [19.241077, 50.3032285], [19.2405711, 50.3020471], [19.236367, 50.302017], [19.2363129, 50.3014311], [19.2358161, 50.3016584], [19.233973, 50.3000611], [19.2300218, 50.3017801], [19.2300685, 50.3032389], [19.2294296, 50.3045435], [19.2298216, 50.306917], [19.2270928, 50.3080169], [19.2290804, 50.3105178], [19.2174055, 50.3124486], [19.211828, 50.3139686], [19.2058647, 50.3146906], [19.198488, 50.3168647], [19.195841, 50.3168423], [19.1874169, 50.3136954], [19.1810968, 50.3136936], [19.1799068, 50.314674], [19.1675944, 50.3137485], [19.1588165, 50.3114272], [19.1501461, 50.3102341], [19.1514937, 50.3098589], [19.1474147, 50.308917], [19.1485269, 50.3076587], [19.1434201, 50.3054862], [19.1443732, 50.3037316], [19.1444553, 50.3013798], [19.140559, 50.3012986], [19.1407665, 50.3028102], [19.1399694, 50.3028311], [19.139226, 50.3020214], [19.1394241, 50.3014944], [19.1357758, 50.3019845], [19.1370489, 50.3036647], [19.1255636, 50.3024341], [19.1254035, 50.3054566], [19.1211488, 50.3051731], [19.1205087, 50.3048856], [19.1206466, 50.3031049], [19.1212726, 50.3031452], [19.1213954, 50.3023531], [19.1110522, 50.3017075], [19.1113661, 50.298586], [19.1096498, 50.2988369], [19.1044794, 50.29726], [19.1026929, 50.2960443], [19.101531, 50.2962072], [19.1012105, 50.2988216], [19.1000943, 50.299743], [19.092898, 50.2986391], [19.0892752, 50.2976205], [19.0892529, 50.2970703], [19.0777248, 50.2965396], [19.0726614, 50.2955833], [19.0721433, 50.294344], [19.0713127, 50.2943357]]]}, "properties": {"name": "Sosnowiec", "osm_id": 2003806, "source": "© OpenStreetMap contributors, ODbL"}}, {"type": "Feature", "geometry": {"type": "Polygon", "coordinates": [[[18.9189695, 50.3024722], [18.9244703, 50.3016436], [18.9243169, 50.3012056], [18.9277683, 50.3003028], [18.9245577, 50.2951848], [18.9332467, 50.2920837], [18.931838, 50.2906621], [18.9357547, 50.2891095], [18.9326153, 50.2870597], [18.9324204, 50.2859022], [18.935156, 50.2849876], [18.9354423, 50.2833467], [18.9369704, 50.2819068], [18.9346452, 50.282543], [18.9336242, 50.2810633], [18.932657, 50.277457], [18.930184, 50.2785741], [18.9297849, 50.2775729], [18.928269, 50.2778664], [18.9278437, 50.2775513], [18.9263422, 50.2756447], [18.9273301, 50.2726892], [18.9312615, 50.2709544], [18.9298322, 50.270879], [18.929153, 50.2694508], [18.9293616, 50.2681426], [18.9330867, 50.2663873], [18.9334957, 50.2618973], [18.9341063, 50.2602208], [18.9359008, 50.2592945], [18.9348787, 50.255784], [18.9337181, 50.2545628], [18.9338449, 50.2537751], [18.9349335, 50.2529992], [18.9376567, 50.247699], [18.9396932, 50.2457256], [18.9454562, 50.2419721], [18.9515089, 50.2398254], [18.9561486, 50.2391289], [18.9556102, 50.2417686], [18.9562376, 50.2424035], [18.956373, 50.2443861], [18.9586364, 50.2465667], [18.9590872, 50.2487394], [18.958571, 50.2510178], [18.9560916, 50.2541024], [18.9569496, 50.2552395], [18.9541629, 50.2624468], [18.9554981, 50.265483], [18.9550008, 50.2675588], [18.9557222, 50.2706911], [18.9587925, 50.2740282], [18.9608423, 50.2736025], [18.9612793, 50.2782587], [18.960983, 50.2791575], [18.9615678, 50.2803626], [18.9623447, 50.2804033], [18.9639416, 50.2840597], [18.9647331, 50.2838877], [18.9647251, 50.2845298], [18.9663044, 50.2862675], [18.9680832, 50.2875889], [18.9696515, 50.287089], [18.9711836, 50.2857111], [18.9747291, 50.283864], [18.9749613, 50.2831159], [18.9920958, 50.2721122], [19.0030168, 50.2791199], [19.0046497, 50.2789889], [19.0045468, 50.2794398], [19.0053015, 50.2793931], [19.0045828, 50.2795855], [19.0044257, 50.2808763], [19.0063682, 50.2812664], [19.0065965, 50.2818836], [19.0060903, 50.2820702], [19.0066727, 50.2821033], [19.0068074, 50.2844863], [19.0063046, 50.2846753], [19.0066969, 50.2850132], [19.0059364, 50.2850085], [19.0055478, 50.285668], [19.0042745, 50.286156], [19.0048736, 50.286426], [19.0048037, 50.2873679], [19.0062327, 50.2878842], [19.0043258, 50.2953675], [18.9970235, 50.2973215], [18.9973542, 50.2978807], [18.9966408, 50.2992217], [18.9926081, 50.3029939], [18.99133, 50.3052225], [18.9870855, 50.3098753], [18.9861354, 50.3145], [18.9865278, 50.3174769], [18.996071, 50.317282], [18.9971677, 50.3217256], [18.9935863, 50.3222583], [18.9870874, 50.3246096], [18.9853047, 50.3246966], [18.9854072, 50.3358817], [18.9673245, 50.3378509], [18.9630987, 50.3368881], [18.9603603, 50.3348259], [18.9590523, 50.3353312], [18.9587559, 50.3345659], [18.9545572, 50.3313903], [18.9540898, 50.3238222], [18.9527682, 50.3232256], [18.9512707, 50.321434], [18.9467276, 50.3252542], [18.9432562, 50.3270155], [18.9469732, 50.3167077], [18.926966, 50.3180863], [18.9306021, 50.313406], [18.92499, 50.3080363], [18.9219218, 50.3066352], [18.9225614, 50.3057228], [18.9217265, 50.3044925], [18.9195346, 50.304898], [18.9189695, 50.3024722]]]}, "properties": {"name": "Chorzów", "osm_id": 332346, "source": "© OpenStreetMap contributors, ODbL"}}, {"type": "Feature", "geometry": {"type": "Polygon", "coordinates": [[[18.9853047, 50.3246966], [18.9870874, 50.3246096], [18.9935863, 50.3222583], [18.9971677, 50.3217256], [18.996071, 50.317282], [18.9865278, 50.3174769], [18.9861354, 50.3145], [18.9872408, 50.3095397], [18.99133, 50.3052225], [18.9926081, 50.3029939], [18.9966408, 50.2992217], [18.9973542, 50.2978807], [18.9970235, 50.2973215], [19.0171, 50.2923461], [19.0184222, 50.291736], [19.017777, 50.2902025], [19.0230663, 50.2871785], [19.0295935, 50.2863143], [19.0312798, 50.2856585], [19.0338038, 50.2784535], [19.036895, 50.2780241], [19.0406367, 50.2790033], [19.0505837, 50.2748385], [19.0510089, 50.2753703], [19.0527979, 50.2807414], [19.055198, 50.2832243], [19.0570022, 50.2870901], [19.0552175, 50.2878931], [19.0555757, 50.289605], [19.0590144, 50.2893566], [19.0593433, 50.2904201], [19.0579202, 50.2923528], [19.0578559, 50.2936312], [19.0587798, 50.2946463], [19.0611009, 50.2954039], [19.0599769, 50.2990383], [19.0565717, 50.2992148], [19.056352, 50.2968335], [19.0555386, 50.2966522], [19.052509, 50.2972392], [19.0450677, 50.3009575], [19.0465119, 50.3030301], [19.0465467, 50.3046594], [19.0498459, 50.3153279], [19.0483631, 50.3181456], [19.0494698, 50.3201381], [19.0512567, 50.3212321], [19.052258, 50.3237149], [19.053966, 50.3229304], [19.0565405, 50.3271252], [19.0538228, 50.3328345], [19.0542375, 50.3384452], [19.0555626, 50.3400734], [19.0609326, 50.3439357], [19.0612939, 50.3450297], [19.0605745, 50.3461446], [19.0559863, 50.3488838], [19.0522939, 50.3498941], [19.0444324, 50.3486042], [19.0363026, 50.3483985], [19.0367167, 50.3454671], [19.0363544, 50.3413529], [19.0358753, 50.3381125], [19.0345181, 50.333912], [19.0323815, 50.3354541], [19.024749, 50.3366039], [19.0188021, 50.3346907], [19.0109394, 50.330651], [18.9977886, 50.3330473], [18.9854055, 50.3359305], [18.9853047, 50.3246966]]]}, "properties": {"name": "Siemianowice Śląskie", "osm_id": 332334, "source": "© OpenStreetMap contributors, ODbL"}}, {"type": "Feature", "geometry": {"type": "Polygon", "coordinates": [[[18.8834753, 50.2949381], [18.8858677, 50.2942754], [18.8890917, 50.2925783], [18.8907942, 50.2926246], [18.8973751, 50.2901714], [18.899893, 50.2886821], [18.9032147, 50.2849751], [18.9032574, 50.2838294], [18.8996543, 50.2839276], [18.8992018, 50.2804248], [18.8985614, 50.2804685], [18.8995945, 50.277653], [18.9045698, 50.2781175], [18.90414, 50.2765721], [18.9044575, 50.2759679], [18.9072628, 50.2761707], [18.9069399, 50.2755523], [18.9093711, 50.2749506], [18.9094544, 50.2756789], [18.9108128, 50.2755785], [18.9105152, 50.2749499], [18.9111723, 50.2749204], [18.9111048, 50.2745572], [18.9153015, 50.2739722], [18.9152246, 50.2736738], [18.9271718, 50.2711208], [18.9312273, 50.2707558], [18.9273301, 50.2726892], [18.9264542, 50.2759031], [18.928269, 50.2778664], [18.9297849, 50.2775729], [18.930184, 50.2785741], [18.932657, 50.277457], [18.9340059, 50.2819836], [18.9346452, 50.282543], [18.9369704, 50.2819068], [18.9354423, 50.2833467], [18.935156, 50.2849876], [18.9324204, 50.2859022], [18.9326153, 50.2870597], [18.9357547, 50.2891095], [18.931838, 50.2906621], [18.9332467, 50.2920837], [18.9245577, 50.2951848], [18.9277683, 50.3003028], [18.9243169, 50.3012056], [18.9244703, 50.3016436], [18.9189695, 50.3024722], [18.9195346, 50.304898], [18.9217265, 50.3044925], [18.9225614, 50.3057228], [18.9219218, 50.3066352], [18.92499, 50.3080363], [18.9306021, 50.313406], [18.9271789, 50.3174269], [18.9269412, 50.319092], [18.9262912, 50.3191055], [18.9257105, 50.3201801], [18.9263141, 50.3203908], [18.9188542, 50.3206228], [18.9116526, 50.3220587], [18.9041938, 50.3226206], [18.8960221, 50.3249245], [18.8953548, 50.3229054], [18.8953065, 50.319979], [18.8939762, 50.317205], [18.8923441, 50.3152887], [18.8931977, 50.3149186], [18.8928428, 50.314535], [18.8919652, 50.3149104], [18.8904407, 50.313359], [18.8883782, 50.3122017], [18.8867752, 50.3091966], [18.8869358, 50.3073835], [18.8920685, 50.3011122], [18.8853767, 50.2975984], [18.8834753, 50.2949381]]]}, "properties": {"name": "Świętochłowice", "osm_id": 334926, "source": "© OpenStreetMap contributors, ODbL"}}, {"type": "Feature", "geometry": {"type": "Polygon", "coordinates": [[[18.792342, 50.2467749], [18.7976321, 50.246544], [18.7973357, 50.2461566], [18.7977775, 50.2457335], [18.7981865, 50.2462752], [18.7978382, 50.2467101], [18.7993662, 50.246047], [18.7988472, 50.2464223], [18.7994187, 50.24745], [18.8019424, 50.2473524], [18.8043429, 50.2483944], [18.8097901, 50.247535], [18.8135004, 50.246217], [18.8133528, 50.2453175], [18.816234, 50.2439648], [18.8184717, 50.2440806], [18.8205629, 50.243578], [18.8201566, 50.2385592], [18.8208298, 50.2384539], [18.8230755, 50.2355906], [18.8248966, 50.235619], [18.8249222, 50.2344521], [18.8268731, 50.2343949], [18.8270784, 50.2334023], [18.8330801, 50.2337336], [18.8344094, 50.2361819], [18.8371755, 50.2357045], [18.8368752, 50.2354502], [18.8374903, 50.2347281], [18.8367203, 50.2318915], [18.8369442, 50.2308872], [18.8350775, 50.2308662], [18.8352547, 50.2287129], [18.8371988, 50.228976], [18.8417344, 50.2236322], [18.8422607, 50.2211496], [18.8433633, 50.2207514], [18.8425146, 50.220415], [18.8419816, 50.2208963], [18.8411734, 50.2225344], [18.8407164, 50.2224927], [18.8416377, 50.2232745], [18.8396932, 50.2242046], [18.8397521, 50.2235972], [18.8408164, 50.2230412], [18.8405466, 50.2226158], [18.8406733, 50.2219248], [18.8400272, 50.2217787], [18.8402186, 50.2211901], [18.8384697, 50.2211084], [18.8378704, 50.2199958], [18.8429344, 50.2203335], [18.8529165, 50.2280963], [18.854489, 50.2264432], [18.8547262, 50.2253446], [18.8551141, 50.2255335], [18.8590041, 50.2229965], [18.8597853, 50.2216938], [18.8601268, 50.2197479], [18.8615876, 50.2175237], [18.8610644, 50.216386], [18.8616213, 50.2157605], [18.8613093, 50.2151463], [18.8621683, 50.214038], [18.8628093, 50.2139158], [18.8640695, 50.2120362], [18.8646308, 50.2122171], [18.865392, 50.2113685], [18.8668305, 50.2114888], [18.8687962, 50.2084219], [18.8872639, 50.2114034], [18.8869158, 50.212208], [18.8843014, 50.2126938], [18.8825304, 50.2138904], [18.8820747, 50.2166427], [18.8969434, 50.2193885], [18.8915418, 50.2331281], [18.8926574, 50.2342098], [18.8916035, 50.2340821], [18.8918168, 50.2346385], [18.894517, 50.235963], [18.8951706, 50.2356333], [18.8957439, 50.2360075], [18.8961825, 50.2354103], [18.8968916, 50.2356422], [18.8973277, 50.2353047], [18.8971662, 50.234733], [18.8984541, 50.2348709], [18.8982247, 50.234428], [18.8988081, 50.2345408], [18.8983955, 50.2342248], [18.8990066, 50.2338911], [18.8984947, 50.2337074], [18.9000671, 50.2330977], [18.8996035, 50.2330256], [18.9002747, 50.2325457], [18.8998956, 50.2321221], [18.9020206, 50.2317469], [18.9019671, 50.2310494], [18.9030133, 50.2298854], [18.9053112, 50.2297105], [18.9057559, 50.2292074], [18.9064235, 50.2295312], [18.9065309, 50.2290928], [18.9079273, 50.2288285], [18.9078524, 50.2291679], [18.908564, 50.2291631], [18.9083388, 50.2287649], [18.9091343, 50.2288311], [18.9087155, 50.2285056], [18.9101033, 50.2279975], [18.911171, 50.2286744], [18.91239, 50.2286949], [18.9123088, 50.2283327], [18.9127874, 50.2282472], [18.912996, 50.228702], [18.9148961, 50.229015], [18.9153156, 50.2286817], [18.9184742, 50.2297343], [18.9194558, 50.2293256], [18.9226224, 50.2295989], [18.9244291, 50.229068], [18.9286288, 50.2293186], [18.9298387, 50.2298569], [18.9312551, 50.2296949], [18.9409664, 50.2315873], [18.944513, 50.231451], [18.9486638, 50.2329717], [18.9499782, 50.2344064], [18.9500101, 50.2353965], [18.9525223, 50.2372164], [18.954422, 50.2376883], [18.9561486, 50.2391289], [18.9503599, 50.2401135], [18.9461389, 50.2416389], [18.941209, 50.2445904], [18.9376567, 50.247699], [18.9363084, 50.2508067], [18.9336343, 50.2541916], [18.9348787, 50.255784], [18.9359008, 50.2592945], [18.9341063, 50.2602208], [18.9334957, 50.2618973], [18.9330867, 50.2663873], [18.9293616, 50.2681426], [18.929153, 50.2694508], [18.9298322, 50.270879], [18.9111048, 50.2745572], [18.9111723, 50.2749204], [18.9105152, 50.2749499], [18.9108128, 50.2755785], [18.9094544, 50.2756789], [18.9093711, 50.2749506], [18.9069399, 50.2755523], [18.9072628, 50.2761707], [18.9044575, 50.2759679], [18.90414, 50.2765721], [18.9045698, 50.2781175], [18.8995945, 50.277653], [18.8985614, 50.2804685], [18.8992018, 50.2804248], [18.8996543, 50.2839276], [18.9032574, 50.2838294], [18.9033428, 50.284615], [18.899893, 50.2886821], [18.8973751, 50.2901714], [18.8907942, 50.2926246], [18.8890917, 50.2925783], [18.8858677, 50.2942754], [18.8834753, 50.2949381], [18.8853767, 50.2975984], [18.8920685, 50.3011122], [18.8869358, 50.3073835], [18.8867752, 50.3091966], [18.8883782, 50.3122017], [18.8904407, 50.313359], [18.8919652, 50.3149104], [18.8928428, 50.314535], [18.8931977, 50.3149186], [18.8923441, 50.3152887], [18.8939762, 50.317205], [18.8953065, 50.319979], [18.8953548, 50.3229054], [18.8960746, 50.3248298], [18.8954702, 50.3255159], [18.8955823, 50.326395], [18.8948528, 50.3264293], [18.8934681, 50.3276425], [18.8935252, 50.3281262], [18.8896348, 50.3286235], [18.890419, 50.3296638], [18.8899171, 50.3298315], [18.8891247, 50.3287939], [18.8872886, 50.3294451], [18.883619, 50.3297828], [18.8816757, 50.329483], [18.8809211, 50.3286945], [18.8793345, 50.3289721], [18.878191, 50.3283568], [18.8748594, 50.3283972], [18.8725752, 50.3294797], [18.87064, 50.329319], [18.8643859, 50.3279013], [18.8632268, 50.3268172], [18.8625575, 50.3273331], [18.8625349, 50.3280508], [18.8611985, 50.3275894], [18.8594244, 50.3291849], [18.8501546, 50.3317029], [18.8453015, 50.329366], [18.8458624, 50.3278417], [18.8467909, 50.32753], [18.8493832, 50.3236459], [18.8386157, 50.3224048], [18.8319044, 50.3209785], [18.8309715, 50.3201823], [18.8317846, 50.3177389], [18.8313199, 50.31224], [18.8325145, 50.3125481], [18.8327192, 50.3116418], [18.830959, 50.3051736], [18.8358249, 50.3034899], [18.842941, 50.302707], [18.8427508, 50.3000447], [18.8437656, 50.2995754], [18.845538, 50.2997861], [18.8446215, 50.2985822], [18.8442785, 50.2965825], [18.8416974, 50.2958582], [18.8416558, 50.2953947], [18.8383205, 50.2952058], [18.8352876, 50.2941981], [18.8338589, 50.2931136], [18.833866, 50.2918812], [18.83329, 50.2914257], [18.8298101, 50.2903181], [18.828913, 50.2904213], [18.8283788, 50.2895302], [18.8234553, 50.2865266], [18.8224967, 50.2855528], [18.8267172, 50.2850856], [18.8282671, 50.2842857], [18.8274336, 50.2819044], [18.8273687, 50.2801289], [18.8225581, 50.280249], [18.8224848, 50.2789539], [18.8216763, 50.2792023], [18.8221047, 50.2760903], [18.8214708, 50.2753946], [18.8217986, 50.2739265], [18.8148373, 50.2748735], [18.8141658, 50.2748578], [18.8140822, 50.2734028], [18.7994334, 50.2739367], [18.799015, 50.2674514], [18.7963327, 50.2674986], [18.7976599, 50.2610601], [18.7949056, 50.2536486], [18.7932612, 50.250686], [18.792342, 50.2467749]]]}, "properties": {"name": "Ruda Śląska", "osm_id": 383221, "source": "© OpenStreetMap contributors, ODbL"}}, {"type": "Feature", "geometry": {"type": "Polygon", "coordinates": [[[18.7307362, 50.3342335], [18.7318586, 50.3315463], [18.7365345, 50.3303478], [18.7382803, 50.3291884], [18.7391027, 50.3259126], [18.7384927, 50.323605], [18.7378022, 50.3228195], [18.7387677, 50.3204049], [18.7366517, 50.3179526], [18.7362411, 50.3169505], [18.7366891, 50.3168042], [18.7346835, 50.3157999], [18.731479, 50.3150735], [18.7312663, 50.3088388], [18.7338524, 50.3055185], [18.7363701, 50.3053529], [18.7319487, 50.3051969], [18.7333667, 50.3024916], [18.7324968, 50.2983867], [18.7340152, 50.2989321], [18.7337856, 50.2959323], [18.7470138, 50.2956615], [18.7509371, 50.2944051], [18.7502875, 50.2937339], [18.7508126, 50.293213], [18.749389, 50.2916135], [18.7505288, 50.289761], [18.752732, 50.2887168], [18.7486313, 50.2894993], [18.746096, 50.2890248], [18.746593, 50.2861307], [18.74447, 50.2862603], [18.7448547, 50.2820076], [18.7462645, 50.2804503], [18.7479196, 50.2808448], [18.7489076, 50.2798683], [18.7509739, 50.2790866], [18.7528247, 50.2772677], [18.7563234, 50.2761127], [18.7553702, 50.2755034], [18.7516811, 50.2751528], [18.7477659, 50.2749653], [18.7443089, 50.2754084], [18.742892, 50.2742672], [18.7396644, 50.2733197], [18.7388242, 50.272319], [18.7364046, 50.2713297], [18.7359028, 50.2705018], [18.7369807, 50.2704989], [18.7372216, 50.2694303], [18.7395614, 50.2686212], [18.7386076, 50.2676835], [18.7378871, 50.2683405], [18.7379383, 50.2674509], [18.7398272, 50.2677008], [18.7415509, 50.2668008], [18.7431788, 50.2669092], [18.7441003, 50.2662791], [18.745854, 50.2662367], [18.7483303, 50.2652248], [18.7493299, 50.2641244], [18.7505876, 50.2640219], [18.7495348, 50.2634089], [18.7491555, 50.2621504], [18.7510441, 50.2622921], [18.7511372, 50.2616881], [18.7504033, 50.2616032], [18.7502724, 50.2611652], [18.7512842, 50.2612536], [18.7510151, 50.2605439], [18.7515143, 50.2607272], [18.752558, 50.2601254], [18.7511272, 50.2591836], [18.7534277, 50.2590003], [18.7539526, 50.2576652], [18.7529971, 50.2574482], [18.7540259, 50.2573925], [18.7542846, 50.2569617], [18.7557197, 50.257576], [18.756669, 50.2569944], [18.7570935, 50.2574525], [18.758294, 50.2573474], [18.7597079, 50.2552469], [18.7598947, 50.2542008], [18.7591224, 50.2537838], [18.7595818, 50.2530675], [18.7635824, 50.2519976], [18.7650294, 50.2522722], [18.764844, 50.2515488], [18.7674172, 50.2518408], [18.7706542, 50.2510723], [18.7751574, 50.2485939], [18.7786478, 50.2478846], [18.7821364, 50.2458063], [18.792342, 50.2467749], [18.7932612, 50.250686], [18.7949056, 50.2536486], [18.7976599, 50.2610601], [18.7963327, 50.2674986], [18.799015, 50.2674514], [18.7994334, 50.2739367], [18.8140822, 50.2734028], [18.8141658, 50.2748578], [18.8148373, 50.2748735], [18.8217986, 50.2739265], [18.8214708, 50.2753946], [18.8221047, 50.2760903], [18.8216763, 50.2792023], [18.8224848, 50.2789539], [18.8225581, 50.280249], [18.8273687, 50.2801289], [18.8274336, 50.2819044], [18.8282671, 50.2842857], [18.8267172, 50.2850856], [18.8224967, 50.2855528], [18.8234553, 50.2865266], [18.8283788, 50.2895302], [18.828913, 50.2904213], [18.8298101, 50.2903181], [18.83329, 50.2914257], [18.833866, 50.2918812], [18.8338589, 50.2931136], [18.8352876, 50.2941981], [18.8383205, 50.2952058], [18.8416558, 50.2953947], [18.8416974, 50.2958582], [18.8442785, 50.2965825], [18.8446215, 50.2985822], [18.845538, 50.2997861], [18.8437656, 50.2995754], [18.8427508, 50.3000447], [18.842941, 50.302707], [18.8358249, 50.3034899], [18.830959, 50.3051736], [18.8327192, 50.3116418], [18.8325145, 50.3125481], [18.8313199, 50.31224], [18.8317846, 50.3177389], [18.8309715, 50.3201823], [18.8319044, 50.3209785], [18.8386157, 50.3224048], [18.8493832, 50.3236459], [18.8467909, 50.32753], [18.8458624, 50.3278417], [18.8453015, 50.329366], [18.8501546, 50.3317029], [18.8594244, 50.3291849], [18.8611985, 50.3275894], [18.862266, 50.3281438], [18.8602437, 50.3291329], [18.8589916, 50.3324153], [18.8577334, 50.332349], [18.8576762, 50.334559], [18.8555869, 50.3354307], [18.8554672, 50.3366857], [18.852792, 50.3389417], [18.8476253, 50.3412575], [18.8468339, 50.3419339], [18.846468, 50.3435301], [18.845538, 50.3443576], [18.8449016, 50.344671], [18.8449436, 50.34398], [18.8348516, 50.3439628], [18.8348723, 50.3472371], [18.8311395, 50.3479396], [18.8321048, 50.3492624], [18.8233913, 50.3513648], [18.81676, 50.350676], [18.8158439, 50.353347], [18.8207538, 50.3578724], [18.8202267, 50.3589068], [18.8168542, 50.3592464], [18.816824, 50.3610585], [18.8181989, 50.3620603], [18.8177043, 50.3631716], [18.8186112, 50.3648494], [18.8165367, 50.3667372], [18.8159044, 50.3683521], [18.8130279, 50.3687522], [18.8133531, 50.3693959], [18.8151559, 50.3697861], [18.8152714, 50.3688634], [18.8162325, 50.3687029], [18.8210855, 50.3691586], [18.8151486, 50.3740246], [18.813964, 50.3771587], [18.8146189, 50.3812943], [18.8080989, 50.3825993], [18.8017249, 50.3821949], [18.8022488, 50.3817362], [18.8017322, 50.3806899], [18.8021506, 50.3787937], [18.8013626, 50.3775473], [18.8039456, 50.3759303], [18.8039085, 50.3751519], [18.802621, 50.3737181], [18.8002437, 50.3739253], [18.7991106, 50.3726609], [18.7994092, 50.3724166], [18.79852, 50.3725103], [18.7985561, 50.3713399], [18.7979011, 50.3713372], [18.7985413, 50.3709333], [18.7984397, 50.3703866], [18.7889203, 50.3718123], [18.788941, 50.3721965], [18.7864519, 50.3729941], [18.7841716, 50.3706009], [18.7815414, 50.3730873], [18.7803502, 50.3719399], [18.7757048, 50.3745627], [18.773139, 50.3756321], [18.7716781, 50.3756932], [18.7674149, 50.3711764], [18.7650411, 50.3693267], [18.7644174, 50.3676097], [18.7636754, 50.3672239], [18.7606857, 50.3682035], [18.7545003, 50.3687663], [18.7447739, 50.3683915], [18.7465701, 50.3678878], [18.7467972, 50.3672744], [18.7510461, 50.3501163], [18.7520529, 50.3489581], [18.7539337, 50.3479455], [18.7537583, 50.3476792], [18.7591238, 50.346239], [18.7547364, 50.3422831], [18.7543784, 50.3424098], [18.7541452, 50.3415643], [18.7483001, 50.3417835], [18.7489082, 50.3423677], [18.7485146, 50.3426607], [18.7481238, 50.3423187], [18.7474778, 50.3426674], [18.7472871, 50.3421845], [18.7389663, 50.342996], [18.7356165, 50.3417775], [18.7356302, 50.3412815], [18.7339436, 50.3407261], [18.7339669, 50.3374437], [18.7307362, 50.3342335]]]}, "properties": {"name": "Zabrze", "osm_id": 1774264, "source": "© OpenStreetMap contributors, ODbL"}}, {"type": "Feature", "geometry": {"type": "Polygon", "coordinates": [[[18.7885838, 50.3925613], [18.7916221, 50.3909998], [18.7901138, 50.3902844], [18.7931977, 50.3882557], [18.7923792, 50.3869686], [18.7999883, 50.3842202], [18.8005026, 50.3829974], [18.8011582, 50.3827404], [18.8012821, 50.3820776], [18.8007281, 50.3819663], [18.799854, 50.37966], [18.7991405, 50.3793488], [18.7982352, 50.3778088], [18.7982969, 50.3770852], [18.8000144, 50.3754121], [18.8002437, 50.3739253], [18.802621, 50.3737181], [18.8039085, 50.3751519], [18.8039456, 50.3759303], [18.8013626, 50.3775473], [18.8021506, 50.3787937], [18.8017421, 50.3802938], [18.8022488, 50.3817362], [18.801933, 50.3823431], [18.8080989, 50.3825993], [18.8146189, 50.3812943], [18.813964, 50.3771587], [18.8151486, 50.3740246], [18.8210855, 50.3691586], [18.8162325, 50.3687029], [18.8152714, 50.3688634], [18.8151559, 50.3697861], [18.8133531, 50.3693959], [18.8130279, 50.3687522], [18.8159044, 50.3683521], [18.8165367, 50.3667372], [18.8186112, 50.3648494], [18.8177043, 50.3631716], [18.8181989, 50.3620603], [18.816824, 50.3610585], [18.8168542, 50.3592464], [18.8202267, 50.3589068], [18.8207538, 50.3578724], [18.8158439, 50.353347], [18.81676, 50.350676], [18.8233913, 50.3513648], [18.8321048, 50.3492624], [18.8311395, 50.3479396], [18.8348723, 50.3472371], [18.8348516, 50.3439628], [18.8449436, 50.34398], [18.8449016, 50.344671], [18.845538, 50.3443576], [18.846468, 50.3435301], [18.8468339, 50.3419339], [18.8476253, 50.3412575], [18.852792, 50.3389417], [18.8554672, 50.3366857], [18.8555869, 50.3354307], [18.8576762, 50.334559], [18.8577334, 50.332349], [18.8589916, 50.3324153], [18.8602437, 50.3291329], [18.8625349, 50.3280508], [18.863069, 50.3268523], [18.8643859, 50.3279013], [18.87064, 50.329319], [18.8725752, 50.3294797], [18.8748594, 50.3283972], [18.878191, 50.3283568], [18.8793345, 50.3289721], [18.8809211, 50.3286945], [18.8816757, 50.329483], [18.883619, 50.3297828], [18.8872886, 50.3294451], [18.8891247, 50.3287939], [18.8899171, 50.3298315], [18.890419, 50.3296638], [18.8896348, 50.3286235], [18.8936305, 50.3280751], [18.8934681, 50.3276425], [18.8948528, 50.3264293], [18.8955823, 50.326395], [18.8954702, 50.3255159], [18.8960221, 50.3249245], [18.8984664, 50.3245244], [18.9029478, 50.3228819], [18.9116526, 50.3220587], [18.9188542, 50.3206228], [18.9263141, 50.3203908], [18.9257105, 50.3201801], [18.9262912, 50.3191055], [18.9269412, 50.319092], [18.926966, 50.3180863], [18.9469732, 50.3167077], [18.9432562, 50.3270155], [18.9467276, 50.3252542], [18.9507909, 50.3215099], [18.9512707, 50.321434], [18.9527682, 50.3232256], [18.9538643, 50.3234241], [18.9545572, 50.3313903], [18.9587559, 50.3345659], [18.9609969, 50.3408501], [18.9623493, 50.3405013], [18.9633235, 50.3437998], [18.9640214, 50.3464552], [18.9618486, 50.3465258], [18.9640721, 50.3537696], [18.9639805, 50.3549559], [18.9633347, 50.3554803], [18.9582624, 50.3570171], [18.9524537, 50.3594991], [18.9510069, 50.3606943], [18.9350841, 50.3610116], [18.9370176, 50.3630159], [18.9286315, 50.3644462], [18.9246722, 50.3662845], [18.9228752, 50.366589], [18.9230692, 50.3659714], [18.9218344, 50.366154], [18.921589, 50.3681759], [18.9189151, 50.3706297], [18.9226638, 50.3703261], [18.9226536, 50.3714092], [18.9210784, 50.3713352], [18.9191809, 50.3719331], [18.916653, 50.3715701], [18.914495, 50.3721565], [18.9142979, 50.3718586], [18.909668, 50.373995], [18.9083231, 50.3738463], [18.9063591, 50.3749534], [18.9047752, 50.3750509], [18.8954708, 50.3794179], [18.89567, 50.3808566], [18.8962237, 50.381127], [18.8959835, 50.3844047], [18.8953044, 50.3849121], [18.8944671, 50.3848939], [18.8945227, 50.3842429], [18.8928776, 50.384193], [18.892947, 50.3805923], [18.8913842, 50.3811895], [18.8886009, 50.3813776], [18.8864575, 50.3804247], [18.8840284, 50.3831268], [18.8868774, 50.3882237], [18.886574, 50.3883856], [18.8871359, 50.3896263], [18.8860402, 50.3897386], [18.8900131, 50.3927508], [18.8880106, 50.3940078], [18.8906757, 50.3947412], [18.8903384, 50.3952764], [18.8908264, 50.3956085], [18.8945324, 50.3972526], [18.8907301, 50.3996091], [18.8835988, 50.3989898], [18.8838431, 50.4014171], [18.8847164, 50.4037227], [18.8845198, 50.4057091], [18.8803299, 50.4083497], [18.8785845, 50.4100206], [18.8777734, 50.4095824], [18.8754002, 50.4103069], [18.8752692, 50.411279], [18.8744223, 50.4112002], [18.8739604, 50.4123207], [18.863258, 50.4130045], [18.8629284, 50.4080914], [18.8621649, 50.4067965], [18.8637741, 50.4059377], [18.8624348, 50.4063194], [18.8621789, 50.4059792], [18.8536238, 50.4077811], [18.8452569, 50.4078905], [18.8446275, 50.4088753], [18.8398044, 50.4128838], [18.8372344, 50.4137092], [18.835664, 50.4127812], [18.8353796, 50.4133555], [18.8341856, 50.4124646], [18.8326145, 50.4096735], [18.8324726, 50.4053344], [18.8313418, 50.402798], [18.8287445, 50.4001419], [18.8221969, 50.4017656], [18.8212307, 50.4028098], [18.820721, 50.4043846], [18.8192229, 50.4051158], [18.8128898, 50.4055081], [18.8109951, 50.4041847], [18.8095583, 50.4045503], [18.8073876, 50.4015147], [18.806642, 50.4022994], [18.8019842, 50.3996656], [18.8010291, 50.4003254], [18.7994339, 50.3995081], [18.7978918, 50.4003779], [18.795797, 50.3992907], [18.7949295, 50.3999811], [18.7951655, 50.3996915], [18.7943468, 50.3995391], [18.7904696, 50.3997047], [18.7920867, 50.3962068], [18.7936018, 50.3953364], [18.7948223, 50.3953633], [18.7944572, 50.3948227], [18.7914596, 50.3944296], [18.7885838, 50.3925613]]]}, "properties": {"name": "Bytom", "osm_id": 334927, "source": "© OpenStreetMap contributors, ODbL"}}, {"type": "Feature", "geometry": {"type": "Polygon", "coordinates": [[[18.5429915, 50.3363311], [18.5434176, 50.3367075], [18.544224, 50.336045], [18.5441432, 50.3343711], [18.5470402, 50.3332452], [18.548136, 50.3331088], [18.5482761, 50.3336734], [18.5496541, 50.3337434], [18.5492316, 50.3349394], [18.5502516, 50.3347328], [18.5501909, 50.3335495], [18.5515099, 50.3330197], [18.5606578, 50.3261293], [18.5574521, 50.3250191], [18.5513621, 50.3242776], [18.5469826, 50.3228722], [18.565399, 50.3195478], [18.5657794, 50.3193403], [18.5652525, 50.3176891], [18.5696051, 50.3162008], [18.5699195, 50.3156338], [18.587933, 50.3139997], [18.5902803, 50.3122227], [18.5962591, 50.3113497], [18.5973061, 50.3094592], [18.5937193, 50.3070813], [18.5916172, 50.3050547], [18.5915557, 50.2971646], [18.5911986, 50.2966001], [18.5852077, 50.2949091], [18.5809783, 50.2945624], [18.5725235, 50.2949974], [18.570789, 50.2944099], [18.5725978, 50.292045], [18.5723665, 50.2894272], [18.5710035, 50.2844303], [18.5712081, 50.2779515], [18.5691907, 50.2736977], [18.5673444, 50.2716511], [18.5659527, 50.2647385], [18.569383, 50.2638807], [18.5649627, 50.258705], [18.5657526, 50.2578173], [18.5648489, 50.2571455], [18.5652106, 50.2568997], [18.5628238, 50.2561282], [18.563498, 50.2557584], [18.5629474, 50.2547895], [18.5643734, 50.2552573], [18.5677334, 50.2552094], [18.569964, 50.2573782], [18.5743772, 50.2561886], [18.5779063, 50.2595695], [18.5796759, 50.2619471], [18.5845991, 50.2605233], [18.5907345, 50.2604086], [18.5977315, 50.2591096], [18.6034174, 50.2622448], [18.6096561, 50.2644588], [18.6176398, 50.2631575], [18.6365496, 50.2616665], [18.6419574, 50.2621555], [18.6413828, 50.2538804], [18.640655, 50.2517979], [18.6412629, 50.2475702], [18.6404176, 50.2475037], [18.6407076, 50.2463031], [18.6396726, 50.2461808], [18.6402047, 50.2449031], [18.637347, 50.24373], [18.6372893, 50.2424392], [18.6393167, 50.2420188], [18.6353871, 50.2407558], [18.6308654, 50.2381584], [18.6334588, 50.2350663], [18.6393357, 50.2368534], [18.640944, 50.2387424], [18.6509146, 50.2391754], [18.6588401, 50.2405245], [18.6608543, 50.236625], [18.6642384, 50.2368691], [18.6644663, 50.234498], [18.6655747, 50.2345545], [18.6662763, 50.2329221], [18.6800484, 50.2335221], [18.6799235, 50.234389], [18.685033, 50.2346796], [18.6850892, 50.2272112], [18.7041166, 50.2277603], [18.7061935, 50.236035], [18.7209261, 50.2350852], [18.7220411, 50.2392445], [18.7214477, 50.2429822], [18.7223348, 50.2535594], [18.7257372, 50.2598073], [18.7258126, 50.2672633], [18.7253425, 50.2724006], [18.7317172, 50.2727148], [18.732013, 50.2718449], [18.7330975, 50.2712912], [18.7341384, 50.2715703], [18.735831, 50.2708327], [18.7388242, 50.272319], [18.7396644, 50.2733197], [18.742892, 50.2742672], [18.7443089, 50.2754084], [18.7479919, 50.2749602], [18.7562663, 50.275775], [18.7554719, 50.2766725], [18.7528247, 50.2772677], [18.7509739, 50.2790866], [18.7489076, 50.2798683], [18.7479196, 50.2808448], [18.7462645, 50.2804503], [18.7448547, 50.2820076], [18.74447, 50.2862603], [18.746593, 50.2861307], [18.746096, 50.2890248], [18.7486313, 50.2894993], [18.752732, 50.2887168], [18.7505288, 50.289761], [18.749389, 50.2916135], [18.7508126, 50.293213], [18.7502875, 50.2937339], [18.7509371, 50.2944051], [18.7470138, 50.2956615], [18.7337856, 50.2959323], [18.7340152, 50.2989321], [18.7324968, 50.2983867], [18.7333667, 50.3024916], [18.7319487, 50.3051969], [18.7363701, 50.3053529], [18.7338524, 50.3055185], [18.7312663, 50.3088388], [18.731479, 50.3150735], [18.7346835, 50.3157999], [18.7366891, 50.3168042], [18.7362411, 50.3169505], [18.7366517, 50.3179526], [18.7387677, 50.3204049], [18.737785, 50.3224252], [18.7391027, 50.3259126], [18.738058, 50.3293822], [18.7365345, 50.3303478], [18.7318586, 50.3315463], [18.7266336, 50.3310034], [18.7243516, 50.3313524], [18.7159883, 50.3309135], [18.7156354, 50.3304144], [18.7163878, 50.3301231], [18.7161164, 50.3289197], [18.713563, 50.3286179], [18.7135481, 50.3280189], [18.6878208, 50.3365785], [18.6840775, 50.3387876], [18.6802257, 50.3395299], [18.6789713, 50.3381216], [18.6750368, 50.3372065], [18.6715191, 50.3433853], [18.6733193, 50.3437966], [18.6741353, 50.3473271], [18.6683747, 50.3489305], [18.6648209, 50.3525733], [18.6602891, 50.3515245], [18.658444, 50.3488979], [18.6547026, 50.3488618], [18.6510153, 50.3506536], [18.6473811, 50.3498165], [18.6447826, 50.3544784], [18.6489926, 50.3542196], [18.6493471, 50.3559798], [18.6510514, 50.3572272], [18.6577738, 50.359143], [18.6598174, 50.3592665], [18.6597039, 50.3601471], [18.663088, 50.3600081], [18.6647248, 50.3627249], [18.665701, 50.3626529], [18.6654937, 50.3647938], [18.6646633, 50.3659982], [18.6633136, 50.372322], [18.6605902, 50.3735059], [18.65431, 50.3749314], [18.649613, 50.375096], [18.6436328, 50.3730885], [18.633317, 50.371452], [18.6332943, 50.3709242], [18.6284619, 50.3695731], [18.6236168, 50.3700045], [18.6131607, 50.369048], [18.613455, 50.3681099], [18.6116727, 50.3676687], [18.6084475, 50.3653291], [18.6073338, 50.3640799], [18.6069851, 50.3626632], [18.6053984, 50.3618952], [18.5985149, 50.3647442], [18.597643, 50.3623475], [18.5981856, 50.3621467], [18.5971923, 50.3600431], [18.5981007, 50.3593618], [18.5990342, 50.3598989], [18.5998265, 50.3594872], [18.6034684, 50.3538432], [18.5937752, 50.3497034], [18.5931599, 50.3485564], [18.5842983, 50.3433878], [18.5840308, 50.3427535], [18.5854146, 50.3401229], [18.592898, 50.3385065], [18.59931, 50.3377897], [18.5990278, 50.3278439], [18.5981876, 50.3271767], [18.5850114, 50.3334407], [18.5799335, 50.3353442], [18.5799782, 50.3368585], [18.5787711, 50.3369308], [18.5781774, 50.3359965], [18.5726676, 50.3377336], [18.5684213, 50.3413815], [18.5641483, 50.3435461], [18.5616276, 50.3441556], [18.557681, 50.342852], [18.5577085, 50.3421603], [18.5557946, 50.3430531], [18.5545998, 50.3425156], [18.553661, 50.3427763], [18.5448864, 50.3380587], [18.5429915, 50.3363311]]]}, "properties": {"name": "Gliwice", "osm_id": 2103532, "source": "© OpenStreetMap contributors, ODbL"}}]}