{"type": "FeatureCollection", "features": [{"type": "Feature", "geometry": {"type": "Polygon", "coordinates": [[[20.5105231, 50.8565906], [20.5160265, 50.8409212], [20.5257264, 50.8395617], [20.5284188, 50.8412464], [20.5353485, 50.8388862], [20.5357747, 50.8384591], [20.5328556, 50.8387076], [20.5333893, 50.8377078], [20.5360536, 50.8373085], [20.5345183, 50.8361278], [20.5351586, 50.8358708], [20.5345191, 50.8348269], [20.5357465, 50.8324734], [20.5369942, 50.8325875], [20.5381105, 50.8320026], [20.5387789, 50.8323976], [20.5378896, 50.8334921], [20.5390547, 50.8334399], [20.5397786, 50.8320188], [20.5420427, 50.8300948], [20.5461503, 50.8277213], [20.5496294, 50.8246989], [20.5516177, 50.8199826], [20.5531912, 50.812832], [20.55385, 50.8124411], [20.5593636, 50.8102079], [20.5622751, 50.8098463], [20.5617531, 50.8103511], [20.5624925, 50.8112995], [20.5686401, 50.8109716], [20.5689616, 50.8115743], [20.5714084, 50.8125987], [20.5728619, 50.8154336], [20.5855098, 50.8175488], [20.5887053, 50.8168906], [20.592585, 50.8146223], [20.5955287, 50.8139764], [20.5948839, 50.8110476], [20.5944279, 50.8111552], [20.5923275, 50.8085394], [20.5954486, 50.8069113], [20.602715, 50.8102372], [20.6150148, 50.8055284], [20.6154805, 50.8010402], [20.616638, 50.8008895], [20.6132056, 50.7934882], [20.6205685, 50.7932894], [20.6208436, 50.7981427], [20.6221577, 50.7980516], [20.6213618, 50.8011872], [20.623874, 50.8038508], [20.6272441, 50.8028976], [20.6275013, 50.8075623], [20.6315527, 50.807069], [20.6322697, 50.8078709], [20.6407145, 50.8050452], [20.6433682, 50.8079363], [20.6453247, 50.8072815], [20.6458933, 50.8178819], [20.6407489, 50.8185112], [20.6407746, 50.8189797], [20.6402941, 50.818994], [20.6402709, 50.8185694], [20.6373408, 50.818931], [20.6375773, 50.8232555], [20.6420591, 50.8226675], [20.6434159, 50.819984], [20.6551213, 50.818503], [20.6592642, 50.8269843], [20.6718966, 50.826033], [20.6656492, 50.8317286], [20.6728785, 50.8441486], [20.6758333, 50.8441529], [20.6760129, 50.8470781], [20.6682643, 50.8470587], [20.6692312, 50.8524417], [20.6829003, 50.8523209], [20.6830149, 50.8518023], [20.6845201, 50.850941], [20.6888566, 50.8496883], [20.6895041, 50.8488656], [20.6915839, 50.8488403], [20.6939882, 50.8470772], [20.6967007, 50.8470331], [20.6965024, 50.8483041], [20.6976365, 50.8486708], [20.6971509, 50.8493441], [20.7013819, 50.8493335], [20.7081911, 50.84598], [20.7083759, 50.8561933], [20.7099759, 50.8566302], [20.7109725, 50.8577616], [20.7107588, 50.8586273], [20.7116187, 50.8587909], [20.7121623, 50.8595773], [20.7133884, 50.8593068], [20.7141807, 50.8597544], [20.7141041, 50.8608983], [20.7151101, 50.8604096], [20.7158718, 50.8613003], [20.7171419, 50.8606942], [20.7206038, 50.862219], [20.7206279, 50.862823], [20.7194886, 50.8624905], [20.719189, 50.8631416], [20.677338, 50.8631589], [20.6757764, 50.8737098], [20.6777059, 50.8790614], [20.6776369, 50.8842958], [20.6827527, 50.8841605], [20.6911644, 50.8825556], [20.7002555, 50.8909535], [20.6999676, 50.891326], [20.6979483, 50.8894947], [20.6950038, 50.8942756], [20.6886851, 50.8923983], [20.6856336, 50.892015], [20.681668, 50.8931163], [20.6778877, 50.8929794], [20.6769093, 50.8960474], [20.6930956, 50.9001215], [20.6816563, 50.9029904], [20.6826307, 50.9058348], [20.6818784, 50.9087452], [20.6850911, 50.9110191], [20.6776328, 50.9148569], [20.6769003, 50.9125064], [20.662763, 50.9114688], [20.6600647, 50.9033782], [20.6427481, 50.9059987], [20.6424696, 50.9066002], [20.6416317, 50.9061731], [20.6378167, 50.9067577], [20.6372023, 50.9073432], [20.6383974, 50.907272], [20.6391323, 50.9080224], [20.6380758, 50.9092318], [20.6393196, 50.9119051], [20.6386279, 50.9120359], [20.6388735, 50.9125539], [20.6338595, 50.9134466], [20.6331894, 50.9118267], [20.6343065, 50.9116664], [20.6338554, 50.9098926], [20.6334334, 50.9092875], [20.6321671, 50.9097339], [20.6327801, 50.9084845], [20.6327077, 50.9074476], [20.6316486, 50.9064599], [20.6279731, 50.9056029], [20.6273185, 50.9062791], [20.6237126, 50.9066456], [20.6229679, 50.9061909], [20.6203561, 50.9071524], [20.6163883, 50.907762], [20.6185447, 50.910235], [20.6164878, 50.9122761], [20.6028818, 50.9122179], [20.6035544, 50.9150826], [20.5968345, 50.912597], [20.5970002, 50.9122803], [20.5965431, 50.9121348], [20.5962825, 50.9123831], [20.587349, 50.9098081], [20.587595, 50.9097119], [20.5873359, 50.9092311], [20.5872272, 50.9096561], [20.5850017, 50.9091782], [20.5815618, 50.9070092], [20.5810275, 50.9074054], [20.5816859, 50.9077727], [20.581514, 50.9083644], [20.5797993, 50.90827], [20.5498854, 50.9023901], [20.5482027, 50.8961798], [20.5398817, 50.8829173], [20.5441387, 50.8832745], [20.5428343, 50.8828306], [20.5457883, 50.8795545], [20.5475221, 50.8794181], [20.5472395, 50.8741396], [20.5288822, 50.8731745], [20.5272783, 50.8738364], [20.5248759, 50.8740078], [20.524232, 50.8743201], [20.5243146, 50.8747997], [20.5215615, 50.8758736], [20.5191841, 50.871424], [20.5195382, 50.8688214], [20.5256162, 50.8677269], [20.5249619, 50.8661857], [20.5282009, 50.8656371], [20.5256557, 50.8596967], [20.5223525, 50.8594041], [20.5210602, 50.8556013], [20.5105231, 50.8565906]]]}, "properties": {"name": "Kielce", "osm_id": 1627497, "source": "© OpenStreetMap contributors, ODbL"}}]}