<?xml version="1.0" encoding="utf-8"?>
<kml xmlns="http://www.opengis.net/kml/2.2">
  <Document>
    <name>12/2271/1385.kml</name>
    <description></description>
    <Style>
      <ListStyle id="hideChildren">
        <listItemType>checkHideChildren</listItemType>
      </ListStyle>
    </Style>
    <Region>
      <LatLonAltBox>
        <north>50.23315183247223</north>
        <south>50.17689812200105</south>
        <east>19.68750000000000</east>
        <west>19.59960937500000</west>
      </LatLonAltBox>
      <Lod>
        <minLodPixels>128</minLodPixels>
        <maxLodPixels>2048</maxLodPixels>
      </Lod>
    </Region>
    <GroundOverlay>
      <drawOrder>24</drawOrder>
      <Icon>
        <href>1385.png</href>
      </Icon>
      <LatLonBox>
        <north>50.23315183247223</north>
        <south>50.17689812200105</south>
        <east>19.68750000000000</east>
        <west>19.59960937500000</west>
      </LatLonBox>
    </GroundOverlay>
    <NetworkLink>
      <name>13/4543/2770.png</name>
      <Region>
        <LatLonAltBox>
          <north>50.23315183247223</north>
          <south>50.20503326494332</south>
          <east>19.68750000000000</east>
          <west>19.64355468750000</west>
        </LatLonAltBox>
        <Lod>
          <minLodPixels>128</minLodPixels>
          <maxLodPixels>-1</maxLodPixels>
        </Lod>
      </Region>
      <Link>
        <href>../../13/4543/2770.kml</href>
        <viewRefreshMode>onRegion</viewRefreshMode>
        <viewFormat/>
      </Link>
    </NetworkLink>
    <NetworkLink>
      <name>13/4542/2771.png</name>
      <Region>
        <LatLonAltBox>
          <north>50.20503326494332</north>
          <south>50.17689812200105</south>
          <east>19.64355468750000</east>
          <west>19.59960937500000</west>
        </LatLonAltBox>
        <Lod>
          <minLodPixels>128</minLodPixels>
          <maxLodPixels>-1</maxLodPixels>
        </Lod>
      </Region>
      <Link>
        <href>../../13/4542/2771.kml</href>
        <viewRefreshMode>onRegion</viewRefreshMode>
        <viewFormat/>
      </Link>
    </NetworkLink>
    <NetworkLink>
      <name>13/4543/2771.png</name>
      <Region>
        <LatLonAltBox>
          <north>50.20503326494332</north>
          <south>50.17689812200105</south>
          <east>19.68750000000000</east>
          <west>19.64355468750000</west>
        </LatLonAltBox>
        <Lod>
          <minLodPixels>128</minLodPixels>
          <maxLodPixels>-1</maxLodPixels>
        </Lod>
      </Region>
      <Link>
        <href>../../13/4543/2771.kml</href>
        <viewRefreshMode>onRegion</viewRefreshMode>
        <viewFormat/>
      </Link>
    </NetworkLink>
</Document>
</kml>