<?xml version="1.0" encoding="utf-8"?>
<kml xmlns="http://www.opengis.net/kml/2.2">
  <Document>
    <name>12/2275/1389.kml</name>
    <description></description>
    <Style>
      <ListStyle id="hideChildren">
        <listItemType>checkHideChildren</listItemType>
      </ListStyle>
    </Style>
    <Region>
      <LatLonAltBox>
        <north>50.00773901463687</north>
        <south>49.95121990866203</south>
        <east>20.03906249999999</east>
        <west>19.95117187499999</west>
      </LatLonAltBox>
      <Lod>
        <minLodPixels>128</minLodPixels>
        <maxLodPixels>2048</maxLodPixels>
      </Lod>
    </Region>
    <GroundOverlay>
      <drawOrder>24</drawOrder>
      <Icon>
        <href>1389.png</href>
      </Icon>
      <LatLonBox>
        <north>50.00773901463687</north>
        <south>49.95121990866203</south>
        <east>20.03906249999999</east>
        <west>19.95117187499999</west>
      </LatLonBox>
    </GroundOverlay>
    <NetworkLink>
      <name>13/4550/2778.png</name>
      <Region>
        <LatLonAltBox>
          <north>50.00773901463687</north>
          <south>49.97948776108647</south>
          <east>19.99511718749999</east>
          <west>19.95117187499999</west>
        </LatLonAltBox>
        <Lod>
          <minLodPixels>128</minLodPixels>
          <maxLodPixels>-1</maxLodPixels>
        </Lod>
      </Region>
      <Link>
        <href>../../13/4550/2778.kml</href>
        <viewRefreshMode>onRegion</viewRefreshMode>
        <viewFormat/>
      </Link>
    </NetworkLink>
    <NetworkLink>
      <name>13/4551/2778.png</name>
      <Region>
        <LatLonAltBox>
          <north>50.00773901463687</north>
          <south>49.97948776108647</south>
          <east>20.03906249999999</east>
          <west>19.99511718749999</west>
        </LatLonAltBox>
        <Lod>
          <minLodPixels>128</minLodPixels>
          <maxLodPixels>-1</maxLodPixels>
        </Lod>
      </Region>
      <Link>
        <href>../../13/4551/2778.kml</href>
        <viewRefreshMode>onRegion</viewRefreshMode>
        <viewFormat/>
      </Link>
    </NetworkLink>
    <NetworkLink>
      <name>13/4550/2779.png</name>
      <Region>
        <LatLonAltBox>
          <north>49.97948776108647</north>
          <south>49.95121990866203</south>
          <east>19.99511718749999</east>
          <west>19.95117187499999</west>
        </LatLonAltBox>
        <Lod>
          <minLodPixels>128</minLodPixels>
          <maxLodPixels>-1</maxLodPixels>
        </Lod>
      </Region>
      <Link>
        <href>../../13/4550/2779.kml</href>
        <viewRefreshMode>onRegion</viewRefreshMode>
        <viewFormat/>
      </Link>
    </NetworkLink>
    <NetworkLink>
      <name>13/4551/2779.png</name>
      <Region>
        <LatLonAltBox>
          <north>49.97948776108647</north>
          <south>49.95121990866203</south>
          <east>20.03906249999999</east>
          <west>19.99511718749999</west>
        </LatLonAltBox>
        <Lod>
          <minLodPixels>128</minLodPixels>
          <maxLodPixels>-1</maxLodPixels>
        </Lod>
      </Region>
      <Link>
        <href>../../13/4551/2779.kml</href>
        <viewRefreshMode>onRegion</viewRefreshMode>
        <viewFormat/>
      </Link>
    </NetworkLink>
</Document>
</kml>