<?xml version="1.0" encoding="utf-8"?>
<kml xmlns="http://www.opengis.net/kml/2.2">
  <Document>
    <name>11/1138/693.kml</name>
    <description></description>
    <Style>
      <ListStyle id="hideChildren">
        <listItemType>checkHideChildren</listItemType>
      </ListStyle>
    </Style>
    <Region>
      <LatLonAltBox>
        <north>50.17689812200105</north>
        <south>50.06419173665910</south>
        <east>20.21484375000002</east>
        <west>20.03906249999999</west>
      </LatLonAltBox>
      <Lod>
        <minLodPixels>128</minLodPixels>
        <maxLodPixels>2048</maxLodPixels>
      </Lod>
    </Region>
    <GroundOverlay>
      <drawOrder>22</drawOrder>
      <Icon>
        <href>693.png</href>
      </Icon>
      <LatLonBox>
        <north>50.17689812200105</north>
        <south>50.06419173665910</south>
        <east>20.21484375000002</east>
        <west>20.03906249999999</west>
      </LatLonBox>
    </GroundOverlay>
    <NetworkLink>
      <name>12/2276/1386.png</name>
      <Region>
        <LatLonAltBox>
          <north>50.17689812200105</north>
          <south>50.12057809796008</south>
          <east>20.12695312499999</east>
          <west>20.03906249999999</west>
        </LatLonAltBox>
        <Lod>
          <minLodPixels>128</minLodPixels>
          <maxLodPixels>-1</maxLodPixels>
        </Lod>
      </Region>
      <Link>
        <href>../../12/2276/1386.kml</href>
        <viewRefreshMode>onRegion</viewRefreshMode>
        <viewFormat/>
      </Link>
    </NetworkLink>
    <NetworkLink>
      <name>12/2277/1386.png</name>
      <Region>
        <LatLonAltBox>
          <north>50.17689812200105</north>
          <south>50.12057809796008</south>
          <east>20.21484375000002</east>
          <west>20.12695312499999</west>
        </LatLonAltBox>
        <Lod>
          <minLodPixels>128</minLodPixels>
          <maxLodPixels>-1</maxLodPixels>
        </Lod>
      </Region>
      <Link>
        <href>../../12/2277/1386.kml</href>
        <viewRefreshMode>onRegion</viewRefreshMode>
        <viewFormat/>
      </Link>
    </NetworkLink>
    <NetworkLink>
      <name>12/2276/1387.png</name>
      <Region>
        <LatLonAltBox>
          <north>50.12057809796008</north>
          <south>50.06419173665910</south>
          <east>20.12695312499999</east>
          <west>20.03906249999999</west>
        </LatLonAltBox>
        <Lod>
          <minLodPixels>128</minLodPixels>
          <maxLodPixels>-1</maxLodPixels>
        </Lod>
      </Region>
      <Link>
        <href>../../12/2276/1387.kml</href>
        <viewRefreshMode>onRegion</viewRefreshMode>
        <viewFormat/>
      </Link>
    </NetworkLink>
    <NetworkLink>
      <name>12/2277/1387.png</name>
      <Region>
        <LatLonAltBox>
          <north>50.12057809796008</north>
          <south>50.06419173665910</south>
          <east>20.21484375000002</east>
          <west>20.12695312499999</west>
        </LatLonAltBox>
        <Lod>
          <minLodPixels>128</minLodPixels>
          <maxLodPixels>-1</maxLodPixels>
        </Lod>
      </Region>
      <Link>
        <href>../../12/2277/1387.kml</href>
        <viewRefreshMode>onRegion</viewRefreshMode>
        <viewFormat/>
      </Link>
    </NetworkLink>
</Document>
</kml>