<?xml version="1.0" encoding="utf-8"?>
<kml xmlns="http://www.opengis.net/kml/2.2">
  <Document>
    <name>9/283/172.kml</name>
    <description></description>
    <Style>
      <ListStyle id="hideChildren">
        <listItemType>checkHideChildren</listItemType>
      </ListStyle>
    </Style>
    <Region>
      <LatLonAltBox>
        <north>50.73645513701064</north>
        <south>50.28933925329178</south>
        <east>19.68750000000000</east>
        <west>18.98437500000002</west>
      </LatLonAltBox>
      <Lod>
        <minLodPixels>128</minLodPixels>
        <maxLodPixels>2048</maxLodPixels>
      </Lod>
    </Region>
    <GroundOverlay>
      <drawOrder>18</drawOrder>
      <Icon>
        <href>172.png</href>
      </Icon>
      <LatLonBox>
        <north>50.73645513701064</north>
        <south>50.28933925329178</south>
        <east>19.68750000000000</east>
        <west>18.98437500000002</west>
      </LatLonBox>
    </GroundOverlay>
    <NetworkLink>
      <name>10/567/345.png</name>
      <Region>
        <LatLonAltBox>
          <north>50.51342652633955</north>
          <south>50.28933925329178</south>
          <east>19.68750000000000</east>
          <west>19.33593750000001</west>
        </LatLonAltBox>
        <Lod>
          <minLodPixels>128</minLodPixels>
          <maxLodPixels>-1</maxLodPixels>
        </Lod>
      </Region>
      <Link>
        <href>../../10/567/345.kml</href>
        <viewRefreshMode>onRegion</viewRefreshMode>
        <viewFormat/>
      </Link>
    </NetworkLink>
</Document>
</kml>