<?xml version="1.0" encoding="utf-8"?>
<kml xmlns="http://www.opengis.net/kml/2.2">
  <Document>
    <name>12/2277/1385.kml</name>
    <description></description>
    <Style>
      <ListStyle id="hideChildren">
        <listItemType>checkHideChildren</listItemType>
      </ListStyle>
    </Style>
    <Region>
      <LatLonAltBox>
        <north>50.23315183247223</north>
        <south>50.17689812200105</south>
        <east>20.21484375000002</east>
        <west>20.12695312499999</west>
      </LatLonAltBox>
      <Lod>
        <minLodPixels>128</minLodPixels>
        <maxLodPixels>2048</maxLodPixels>
      </Lod>
    </Region>
    <GroundOverlay>
      <drawOrder>24</drawOrder>
      <Icon>
        <href>1385.png</href>
      </Icon>
      <LatLonBox>
        <north>50.23315183247223</north>
        <south>50.17689812200105</south>
        <east>20.21484375000002</east>
        <west>20.12695312499999</west>
      </LatLonBox>
    </GroundOverlay>
    <NetworkLink>
      <name>13/4554/2770.png</name>
      <Region>
        <LatLonAltBox>
          <north>50.23315183247223</north>
          <south>50.20503326494332</south>
          <east>20.17089843749998</east>
          <west>20.12695312499999</west>
        </LatLonAltBox>
        <Lod>
          <minLodPixels>128</minLodPixels>
          <maxLodPixels>-1</maxLodPixels>
        </Lod>
      </Region>
      <Link>
        <href>../../13/4554/2770.kml</href>
        <viewRefreshMode>onRegion</viewRefreshMode>
        <viewFormat/>
      </Link>
    </NetworkLink>
    <NetworkLink>
      <name>13/4555/2770.png</name>
      <Region>
        <LatLonAltBox>
          <north>50.23315183247223</north>
          <south>50.20503326494332</south>
          <east>20.21484375000002</east>
          <west>20.17089843749998</west>
        </LatLonAltBox>
        <Lod>
          <minLodPixels>128</minLodPixels>
          <maxLodPixels>-1</maxLodPixels>
        </Lod>
      </Region>
      <Link>
        <href>../../13/4555/2770.kml</href>
        <viewRefreshMode>onRegion</viewRefreshMode>
        <viewFormat/>
      </Link>
    </NetworkLink>
    <NetworkLink>
      <name>13/4554/2771.png</name>
      <Region>
        <LatLonAltBox>
          <north>50.20503326494332</north>
          <south>50.17689812200105</south>
          <east>20.17089843749998</east>
          <west>20.12695312499999</west>
        </LatLonAltBox>
        <Lod>
          <minLodPixels>128</minLodPixels>
          <maxLodPixels>-1</maxLodPixels>
        </Lod>
      </Region>
      <Link>
        <href>../../13/4554/2771.kml</href>
        <viewRefreshMode>onRegion</viewRefreshMode>
        <viewFormat/>
      </Link>
    </NetworkLink>
    <NetworkLink>
      <name>13/4555/2771.png</name>
      <Region>
        <LatLonAltBox>
          <north>50.20503326494332</north>
          <south>50.17689812200105</south>
          <east>20.21484375000002</east>
          <west>20.17089843749998</west>
        </LatLonAltBox>
        <Lod>
          <minLodPixels>128</minLodPixels>
          <maxLodPixels>-1</maxLodPixels>
        </Lod>
      </Region>
      <Link>
        <href>../../13/4555/2771.kml</href>
        <viewRefreshMode>onRegion</viewRefreshMode>
        <viewFormat/>
      </Link>
    </NetworkLink>
</Document>
</kml>