<?xml version="1.0" encoding="utf-8"?>
<kml xmlns="http://www.opengis.net/kml/2.2">
  <Document>
    <name>NDVI8.tif</name>
    <description></description>
    <Style>
      <ListStyle id="hideChildren">
        <listItemType>checkHideChildren</listItemType>
      </ListStyle>
    </Style>
    <NetworkLink>
      <name>9/283/172.png</name>
      <Region>
        <LatLonAltBox>
          <north>50.73645513701064</north>
          <south>50.28933925329178</south>
          <east>19.68750000000000</east>
          <west>18.98437500000002</west>
        </LatLonAltBox>
        <Lod>
          <minLodPixels>128</minLodPixels>
          <maxLodPixels>-1</maxLodPixels>
        </Lod>
      </Region>
      <Link>
        <href>9/283/172.kml</href>
        <viewRefreshMode>onRegion</viewRefreshMode>
        <viewFormat/>
      </Link>
    </NetworkLink>
    <NetworkLink>
      <name>9/284/172.png</name>
      <Region>
        <LatLonAltBox>
          <north>50.73645513701064</north>
          <south>50.28933925329178</south>
          <east>20.39062500000001</east>
          <west>19.68750000000000</west>
        </LatLonAltBox>
        <Lod>
          <minLodPixels>128</minLodPixels>
          <maxLodPixels>-1</maxLodPixels>
        </Lod>
      </Region>
      <Link>
        <href>9/284/172.kml</href>
        <viewRefreshMode>onRegion</viewRefreshMode>
        <viewFormat/>
      </Link>
    </NetworkLink>
    <NetworkLink>
      <name>9/283/173.png</name>
      <Region>
        <LatLonAltBox>
          <north>50.28933925329178</north>
          <south>49.83798245308484</south>
          <east>19.68750000000000</east>
          <west>18.98437500000002</west>
        </LatLonAltBox>
        <Lod>
          <minLodPixels>128</minLodPixels>
          <maxLodPixels>-1</maxLodPixels>
        </Lod>
      </Region>
      <Link>
        <href>9/283/173.kml</href>
        <viewRefreshMode>onRegion</viewRefreshMode>
        <viewFormat/>
      </Link>
    </NetworkLink>
    <NetworkLink>
      <name>9/284/173.png</name>
      <Region>
        <LatLonAltBox>
          <north>50.28933925329178</north>
          <south>49.83798245308484</south>
          <east>20.39062500000001</east>
          <west>19.68750000000000</west>
        </LatLonAltBox>
        <Lod>
          <minLodPixels>128</minLodPixels>
          <maxLodPixels>-1</maxLodPixels>
        </Lod>
      </Region>
      <Link>
        <href>9/284/173.kml</href>
        <viewRefreshMode>onRegion</viewRefreshMode>
        <viewFormat/>
      </Link>
    </NetworkLink>
</Document>
</kml>