<?xml version="1.0" encoding="utf-8"?>
<kml xmlns="http://www.opengis.net/kml/2.2">
  <Document>
    <name>13/4552/2773.kml</name>
    <description></description>
    <Style>
      <ListStyle id="hideChildren">
        <listItemType>checkHideChildren</listItemType>
      </ListStyle>
    </Style>
    <Region>
      <LatLonAltBox>
        <north>50.14874640066277</north>
        <south>50.12057809796008</south>
        <east>20.08300781249999</east>
        <west>20.03906249999999</west>
      </LatLonAltBox>
      <Lod>
        <minLodPixels>128</minLodPixels>
        <maxLodPixels>-1</maxLodPixels>
      </Lod>
    </Region>
    <GroundOverlay>
      <drawOrder>26</drawOrder>
      <Icon>
        <href>2773.png</href>
      </Icon>
      <LatLonBox>
        <north>50.14874640066277</north>
        <south>50.12057809796008</south>
        <east>20.08300781249999</east>
        <west>20.03906249999999</west>
      </LatLonBox>
    </GroundOverlay>
</Document>
</kml>