<?xml version="1.0" encoding="utf-8"?>
<kml xmlns="http://www.opengis.net/kml/2.2">
  <Document>
    <name>13/4551/2780.kml</name>
    <description></description>
    <Style>
      <ListStyle id="hideChildren">
        <listItemType>checkHideChildren</listItemType>
      </ListStyle>
    </Style>
    <Region>
      <LatLonAltBox>
        <north>49.95121990866203</north>
        <south>49.92293545449572</south>
        <east>20.03906249999999</east>
        <west>19.99511718749999</west>
      </LatLonAltBox>
      <Lod>
        <minLodPixels>128</minLodPixels>
        <maxLodPixels>-1</maxLodPixels>
      </Lod>
    </Region>
    <GroundOverlay>
      <drawOrder>26</drawOrder>
      <Icon>
        <href>2780.png</href>
      </Icon>
      <LatLonBox>
        <north>49.95121990866203</north>
        <south>49.92293545449572</south>
        <east>20.03906249999999</east>
        <west>19.99511718749999</west>
      </LatLonBox>
    </GroundOverlay>
</Document>
</kml>