{"type": "FeatureCollection", "features": [{"type": "Feature", "geometry": {"type": "Polygon", "coordinates": [[[19.0112543, 50.7871974], [19.0118185, 50.7814773], [19.0137226, 50.7779865], [19.0136294, 50.7767739], [19.0122463, 50.7746568], [19.0112748, 50.7718622], [19.0159283, 50.7704008], [19.0189876, 50.7627474], [19.0205262, 50.7616849], [19.0228318, 50.7593867], [19.0230449, 50.7586509], [19.0336196, 50.7484691], [19.0425939, 50.7447506], [19.0431101, 50.7452401], [19.0600969, 50.7450472], [19.06188, 50.7509452], [19.0658975, 50.7496893], [19.0660011, 50.7468461], [19.0646366, 50.7454479], [19.0653472, 50.7441364], [19.0663064, 50.7439473], [19.0666673, 50.7426256], [19.0691613, 50.7433958], [19.0711009, 50.7414449], [19.0725131, 50.7377453], [19.0750748, 50.7347282], [19.0786974, 50.7365664], [19.0831558, 50.7375982], [19.0840185, 50.7416399], [19.0834607, 50.7436839], [19.0848658, 50.7457612], [19.0843779, 50.7494033], [19.0852829, 50.7494428], [19.0849267, 50.7499563], [19.0859377, 50.7504796], [19.0931321, 50.7502837], [19.0939119, 50.7489301], [19.0947821, 50.7491617], [19.0945277, 50.7499869], [19.0952727, 50.7514052], [19.0947952, 50.7519104], [19.0978778, 50.7518128], [19.0973735, 50.7524587], [19.1023007, 50.751881], [19.1026859, 50.7524168], [19.1202329, 50.7502132], [19.1214038, 50.7538772], [19.1267324, 50.7534993], [19.1296935, 50.7577753], [19.13553, 50.7566215], [19.142978, 50.7559313], [19.1436618, 50.7570287], [19.143062, 50.7571577], [19.1457331, 50.7583658], [19.1516876, 50.757867], [19.156599, 50.7564286], [19.1573419, 50.7568544], [19.1646427, 50.7560141], [19.1647151, 50.7544835], [19.16659, 50.7544377], [19.1665578, 50.7539693], [19.1696879, 50.7539727], [19.1697389, 50.7535604], [19.1723099, 50.7542539], [19.1719836, 50.7556505], [19.1749494, 50.755904], [19.1762564, 50.7541436], [19.1805606, 50.7542678], [19.1810045, 50.754401], [19.1807738, 50.7547896], [19.1817797, 50.7550517], [19.1817609, 50.7557457], [19.1822826, 50.7557704], [19.1826286, 50.7553114], [19.1822558, 50.754877], [19.1837581, 50.7541936], [19.1905411, 50.7523418], [19.1938773, 50.7521882], [19.1985448, 50.7641172], [19.2043598, 50.7710487], [19.207042, 50.7732131], [19.2078487, 50.7749014], [19.2252943, 50.7882967], [19.217239, 50.7925315], [19.2185472, 50.8011846], [19.2320889, 50.822887], [19.2331843, 50.8257055], [19.2324668, 50.8266273], [19.2317723, 50.8266233], [19.2310938, 50.8262544], [19.2314458, 50.8258612], [19.2312146, 50.8248156], [19.2287077, 50.824742], [19.2288645, 50.8240859], [19.2281854, 50.8236807], [19.2275848, 50.8243264], [19.2208605, 50.8247178], [19.2179389, 50.8253816], [19.2081303, 50.8248065], [19.2063018, 50.8294494], [19.1940936, 50.8313373], [19.1930516, 50.8334804], [19.1971784, 50.8385555], [19.1976134, 50.8393732], [19.1969292, 50.8395844], [19.1970136, 50.8399935], [19.1991151, 50.8438334], [19.1868012, 50.8467894], [19.1851997, 50.8512674], [19.1851559, 50.8539269], [19.1847461, 50.8539898], [19.18333, 50.8587635], [19.1812842, 50.8616648], [19.1803687, 50.8649483], [19.180455, 50.8673949], [19.182138, 50.8709727], [19.182308, 50.8749249], [19.1830637, 50.877082], [19.1820739, 50.8770172], [19.1785322, 50.8784172], [19.178328, 50.8803944], [19.1759888, 50.8798472], [19.1762051, 50.8814438], [19.1718148, 50.8845032], [19.1687439, 50.8845414], [19.1656126, 50.8797312], [19.1501633, 50.8791531], [19.1478183, 50.8741738], [19.1457409, 50.8712888], [19.139973, 50.8649778], [19.1380279, 50.8634808], [19.1339356, 50.8610608], [19.126325, 50.8613327], [19.1295125, 50.8545706], [19.1252716, 50.8550257], [19.1252828, 50.8538613], [19.1220512, 50.8545704], [19.1194463, 50.8630537], [19.115987, 50.8626431], [19.1174114, 50.8591533], [19.1091417, 50.8607464], [19.110058, 50.8660908], [19.1051464, 50.8658839], [19.1048941, 50.8643512], [19.0932572, 50.8659864], [19.0889212, 50.8654567], [19.0897632, 50.8637026], [19.0890477, 50.8618962], [19.08702, 50.860824], [19.0878717, 50.8602082], [19.0829348, 50.8564937], [19.081819, 50.8549495], [19.0652072, 50.8608369], [19.06321, 50.8600174], [19.0622255, 50.8588414], [19.0601344, 50.853564], [19.0472134, 50.8491067], [19.0399908, 50.8411469], [19.0382473, 50.8255738], [19.0291205, 50.8241782], [19.0316902, 50.8160811], [19.0232727, 50.8148931], [19.0258125, 50.8079547], [19.0265268, 50.8071427], [19.0347155, 50.8041268], [19.034344, 50.800976], [19.0191568, 50.8066043], [19.0198285, 50.7956182], [19.0140045, 50.7924351], [19.0116457, 50.7886071], [19.0112543, 50.7871974]]]}, "properties": {"name": "Częstochowa", "osm_id": 2132438, "source": "© OpenStreetMap contributors, ODbL"}}]}