<?xml version="1.0" encoding="utf-8"?>
<kml xmlns="http://www.opengis.net/kml/2.2">
  <Document>
    <name>11/1136/692.kml</name>
    <description></description>
    <Style>
      <ListStyle id="hideChildren">
        <listItemType>checkHideChildren</listItemType>
      </ListStyle>
    </Style>
    <Region>
      <LatLonAltBox>
        <north>50.28933925329178</north>
        <south>50.17689812200105</south>
        <east>19.86328124999999</east>
        <west>19.68750000000000</west>
      </LatLonAltBox>
      <Lod>
        <minLodPixels>128</minLodPixels>
        <maxLodPixels>2048</maxLodPixels>
      </Lod>
    </Region>
    <GroundOverlay>
      <drawOrder>22</drawOrder>
      <Icon>
        <href>692.png</href>
      </Icon>
      <LatLonBox>
        <north>50.28933925329178</north>
        <south>50.17689812200105</south>
        <east>19.86328124999999</east>
        <west>19.68750000000000</west>
      </LatLonBox>
    </GroundOverlay>
    <NetworkLink>
      <name>12/2272/1384.png</name>
      <Region>
        <LatLonAltBox>
          <north>50.28933925329178</north>
          <south>50.23315183247223</south>
          <east>19.77539062500000</east>
          <west>19.68750000000000</west>
        </LatLonAltBox>
        <Lod>
          <minLodPixels>128</minLodPixels>
          <maxLodPixels>-1</maxLodPixels>
        </Lod>
      </Region>
      <Link>
        <href>../../12/2272/1384.kml</href>
        <viewRefreshMode>onRegion</viewRefreshMode>
        <viewFormat/>
      </Link>
    </NetworkLink>
    <NetworkLink>
      <name>12/2273/1384.png</name>
      <Region>
        <LatLonAltBox>
          <north>50.28933925329178</north>
          <south>50.23315183247223</south>
          <east>19.86328124999999</east>
          <west>19.77539062500000</west>
        </LatLonAltBox>
        <Lod>
          <minLodPixels>128</minLodPixels>
          <maxLodPixels>-1</maxLodPixels>
        </Lod>
      </Region>
      <Link>
        <href>../../12/2273/1384.kml</href>
        <viewRefreshMode>onRegion</viewRefreshMode>
        <viewFormat/>
      </Link>
    </NetworkLink>
    <NetworkLink>
      <name>12/2272/1385.png</name>
      <Region>
        <LatLonAltBox>
          <north>50.23315183247223</north>
          <south>50.17689812200105</south>
          <east>19.77539062500000</east>
          <west>19.68750000000000</west>
        </LatLonAltBox>
        <Lod>
          <minLodPixels>128</minLodPixels>
          <maxLodPixels>-1</maxLodPixels>
        </Lod>
      </Region>
      <Link>
        <href>../../12/2272/1385.kml</href>
        <viewRefreshMode>onRegion</viewRefreshMode>
        <viewFormat/>
      </Link>
    </NetworkLink>
    <NetworkLink>
      <name>12/2273/1385.png</name>
      <Region>
        <LatLonAltBox>
          <north>50.23315183247223</north>
          <south>50.17689812200105</south>
          <east>19.86328124999999</east>
          <west>19.77539062500000</west>
        </LatLonAltBox>
        <Lod>
          <minLodPixels>128</minLodPixels>
          <maxLodPixels>-1</maxLodPixels>
        </Lod>
      </Region>
      <Link>
        <href>../../12/2273/1385.kml</href>
        <viewRefreshMode>onRegion</viewRefreshMode>
        <viewFormat/>
      </Link>
    </NetworkLink>
</Document>
</kml>