<?xml version="1.0" encoding="utf-8"?>
<kml xmlns="http://www.opengis.net/kml/2.2">
  <Document>
    <name>12/2276/1383.kml</name>
    <description></description>
    <Style>
      <ListStyle id="hideChildren">
        <listItemType>checkHideChildren</listItemType>
      </ListStyle>
    </Style>
    <Region>
      <LatLonAltBox>
        <north>50.34546040860478</north>
        <south>50.28933925329178</south>
        <east>20.12695312499999</east>
        <west>20.03906249999999</west>
      </LatLonAltBox>
      <Lod>
        <minLodPixels>128</minLodPixels>
        <maxLodPixels>2048</maxLodPixels>
      </Lod>
    </Region>
    <GroundOverlay>
      <drawOrder>24</drawOrder>
      <Icon>
        <href>1383.png</href>
      </Icon>
      <LatLonBox>
        <north>50.34546040860478</north>
        <south>50.28933925329178</south>
        <east>20.12695312499999</east>
        <west>20.03906249999999</west>
      </LatLonBox>
    </GroundOverlay>
    <NetworkLink>
      <name>13/4552/2767.png</name>
      <Region>
        <LatLonAltBox>
          <north>50.31740811261869</north>
          <south>50.28933925329178</south>
          <east>20.08300781249999</east>
          <west>20.03906249999999</west>
        </LatLonAltBox>
        <Lod>
          <minLodPixels>128</minLodPixels>
          <maxLodPixels>-1</maxLodPixels>
        </Lod>
      </Region>
      <Link>
        <href>../../13/4552/2767.kml</href>
        <viewRefreshMode>onRegion</viewRefreshMode>
        <viewFormat/>
      </Link>
    </NetworkLink>
    <NetworkLink>
      <name>13/4553/2767.png</name>
      <Region>
        <LatLonAltBox>
          <north>50.31740811261869</north>
          <south>50.28933925329178</south>
          <east>20.12695312499999</east>
          <west>20.08300781249999</west>
        </LatLonAltBox>
        <Lod>
          <minLodPixels>128</minLodPixels>
          <maxLodPixels>-1</maxLodPixels>
        </Lod>
      </Region>
      <Link>
        <href>../../13/4553/2767.kml</href>
        <viewRefreshMode>onRegion</viewRefreshMode>
        <viewFormat/>
      </Link>
    </NetworkLink>
</Document>
</kml>