<?xml version="1.0" encoding="utf-8"?>
<kml xmlns="http://www.opengis.net/kml/2.2">
  <Document>
    <name>13/4546/2770.kml</name>
    <description></description>
    <Style>
      <ListStyle id="hideChildren">
        <listItemType>checkHideChildren</listItemType>
      </ListStyle>
    </Style>
    <Region>
      <LatLonAltBox>
        <north>50.23315183247223</north>
        <south>50.20503326494332</south>
        <east>19.81933593750000</east>
        <west>19.77539062500000</west>
      </LatLonAltBox>
      <Lod>
        <minLodPixels>128</minLodPixels>
        <maxLodPixels>-1</maxLodPixels>
      </Lod>
    </Region>
    <GroundOverlay>
      <drawOrder>26</drawOrder>
      <Icon>
        <href>2770.png</href>
      </Icon>
      <LatLonBox>
        <north>50.23315183247223</north>
        <south>50.20503326494332</south>
        <east>19.81933593750000</east>
        <west>19.77539062500000</west>
      </LatLonBox>
    </GroundOverlay>
</Document>
</kml>