<?xml version="1.0" encoding="utf-8"?>
<kml xmlns="http://www.opengis.net/kml/2.2">
  <Document>
    <name>12/2274/1387.kml</name>
    <description></description>
    <Style>
      <ListStyle id="hideChildren">
        <listItemType>checkHideChildren</listItemType>
      </ListStyle>
    </Style>
    <Region>
      <LatLonAltBox>
        <north>50.12057809796008</north>
        <south>50.06419173665910</south>
        <east>19.95117187499999</east>
        <west>19.86328124999999</west>
      </LatLonAltBox>
      <Lod>
        <minLodPixels>128</minLodPixels>
        <maxLodPixels>2048</maxLodPixels>
      </Lod>
    </Region>
    <GroundOverlay>
      <drawOrder>24</drawOrder>
      <Icon>
        <href>1387.png</href>
      </Icon>
      <LatLonBox>
        <north>50.12057809796008</north>
        <south>50.06419173665910</south>
        <east>19.95117187499999</east>
        <west>19.86328124999999</west>
      </LatLonBox>
    </GroundOverlay>
    <NetworkLink>
      <name>13/4548/2774.png</name>
      <Region>
        <LatLonAltBox>
          <north>50.12057809796008</north>
          <south>50.09239321093879</south>
          <east>19.90722656249999</east>
          <west>19.86328124999999</west>
        </LatLonAltBox>
        <Lod>
          <minLodPixels>128</minLodPixels>
          <maxLodPixels>-1</maxLodPixels>
        </Lod>
      </Region>
      <Link>
        <href>../../13/4548/2774.kml</href>
        <viewRefreshMode>onRegion</viewRefreshMode>
        <viewFormat/>
      </Link>
    </NetworkLink>
    <NetworkLink>
      <name>13/4549/2774.png</name>
      <Region>
        <LatLonAltBox>
          <north>50.12057809796008</north>
          <south>50.09239321093879</south>
          <east>19.95117187499999</east>
          <west>19.90722656249999</west>
        </LatLonAltBox>
        <Lod>
          <minLodPixels>128</minLodPixels>
          <maxLodPixels>-1</maxLodPixels>
        </Lod>
      </Region>
      <Link>
        <href>../../13/4549/2774.kml</href>
        <viewRefreshMode>onRegion</viewRefreshMode>
        <viewFormat/>
      </Link>
    </NetworkLink>
    <NetworkLink>
      <name>13/4548/2775.png</name>
      <Region>
        <LatLonAltBox>
          <north>50.09239321093879</north>
          <south>50.06419173665910</south>
          <east>19.90722656249999</east>
          <west>19.86328124999999</west>
        </LatLonAltBox>
        <Lod>
          <minLodPixels>128</minLodPixels>
          <maxLodPixels>-1</maxLodPixels>
        </Lod>
      </Region>
      <Link>
        <href>../../13/4548/2775.kml</href>
        <viewRefreshMode>onRegion</viewRefreshMode>
        <viewFormat/>
      </Link>
    </NetworkLink>
    <NetworkLink>
      <name>13/4549/2775.png</name>
      <Region>
        <LatLonAltBox>
          <north>50.09239321093879</north>
          <south>50.06419173665910</south>
          <east>19.95117187499999</east>
          <west>19.90722656249999</west>
        </LatLonAltBox>
        <Lod>
          <minLodPixels>128</minLodPixels>
          <maxLodPixels>-1</maxLodPixels>
        </Lod>
      </Region>
      <Link>
        <href>../../13/4549/2775.kml</href>
        <viewRefreshMode>onRegion</viewRefreshMode>
        <viewFormat/>
      </Link>
    </NetworkLink>
</Document>
</kml>