<?xml version="1.0" encoding="utf-8"?>
<kml xmlns="http://www.opengis.net/kml/2.2">
  <Document>
    <name>12/2273/1391.kml</name>
    <description></description>
    <Style>
      <ListStyle id="hideChildren">
        <listItemType>checkHideChildren</listItemType>
      </ListStyle>
    </Style>
    <Region>
      <LatLonAltBox>
        <north>49.89463439573419</north>
        <south>49.83798245308484</south>
        <east>19.86328124999999</east>
        <west>19.77539062500000</west>
      </LatLonAltBox>
      <Lod>
        <minLodPixels>128</minLodPixels>
        <maxLodPixels>2048</maxLodPixels>
      </Lod>
    </Region>
    <GroundOverlay>
      <drawOrder>24</drawOrder>
      <Icon>
        <href>1391.png</href>
      </Icon>
      <LatLonBox>
        <north>49.89463439573419</north>
        <south>49.83798245308484</south>
        <east>19.86328124999999</east>
        <west>19.77539062500000</west>
      </LatLonBox>
    </GroundOverlay>
    <NetworkLink>
      <name>13/4546/2782.png</name>
      <Region>
        <LatLonAltBox>
          <north>49.89463439573419</north>
          <south>49.86631672953866</south>
          <east>19.81933593750000</east>
          <west>19.77539062500000</west>
        </LatLonAltBox>
        <Lod>
          <minLodPixels>128</minLodPixels>
          <maxLodPixels>-1</maxLodPixels>
        </Lod>
      </Region>
      <Link>
        <href>../../13/4546/2782.kml</href>
        <viewRefreshMode>onRegion</viewRefreshMode>
        <viewFormat/>
      </Link>
    </NetworkLink>
    <NetworkLink>
      <name>13/4547/2782.png</name>
      <Region>
        <LatLonAltBox>
          <north>49.89463439573419</north>
          <south>49.86631672953866</south>
          <east>19.86328124999999</east>
          <west>19.81933593750000</west>
        </LatLonAltBox>
        <Lod>
          <minLodPixels>128</minLodPixels>
          <maxLodPixels>-1</maxLodPixels>
        </Lod>
      </Region>
      <Link>
        <href>../../13/4547/2782.kml</href>
        <viewRefreshMode>onRegion</viewRefreshMode>
        <viewFormat/>
      </Link>
    </NetworkLink>
</Document>
</kml>