<?xml version="1.0" encoding="utf-8"?>
<kml xmlns="http://www.opengis.net/kml/2.2">
  <Document>
    <name>13/4544/2778.kml</name>
    <description></description>
    <Style>
      <ListStyle id="hideChildren">
        <listItemType>checkHideChildren</listItemType>
      </ListStyle>
    </Style>
    <Region>
      <LatLonAltBox>
        <north>50.00773901463687</north>
        <south>49.97948776108647</south>
        <east>19.73144531250000</east>
        <west>19.68750000000000</west>
      </LatLonAltBox>
      <Lod>
        <minLodPixels>128</minLodPixels>
        <maxLodPixels>-1</maxLodPixels>
      </Lod>
    </Region>
    <GroundOverlay>
      <drawOrder>26</drawOrder>
      <Icon>
        <href>2778.png</href>
      </Icon>
      <LatLonBox>
        <north>50.00773901463687</north>
        <south>49.97948776108647</south>
        <east>19.73144531250000</east>
        <west>19.68750000000000</west>
      </LatLonBox>
    </GroundOverlay>
</Document>
</kml>