<?xml version="1.0" encoding="utf-8"?>
<kml xmlns="http://www.opengis.net/kml/2.2">
  <Document>
    <name>13/4555/2772.kml</name>
    <description></description>
    <Style>
      <ListStyle id="hideChildren">
        <listItemType>checkHideChildren</listItemType>
      </ListStyle>
    </Style>
    <Region>
      <LatLonAltBox>
        <north>50.17689812200105</north>
        <south>50.14874640066277</south>
        <east>20.21484375000002</east>
        <west>20.17089843749998</west>
      </LatLonAltBox>
      <Lod>
        <minLodPixels>128</minLodPixels>
        <maxLodPixels>-1</maxLodPixels>
      </Lod>
    </Region>
    <GroundOverlay>
      <drawOrder>26</drawOrder>
      <Icon>
        <href>2772.png</href>
      </Icon>
      <LatLonBox>
        <north>50.17689812200105</north>
        <south>50.14874640066277</south>
        <east>20.21484375000002</east>
        <west>20.17089843749998</west>
      </LatLonBox>
    </GroundOverlay>
</Document>
</kml>