<?xml version="1.0" encoding="utf-8"?>
<kml xmlns="http://www.opengis.net/kml/2.2">
  <Document>
    <name>13/4541/2774.kml</name>
    <description></description>
    <Style>
      <ListStyle id="hideChildren">
        <listItemType>checkHideChildren</listItemType>
      </ListStyle>
    </Style>
    <Region>
      <LatLonAltBox>
        <north>50.12057809796008</north>
        <south>50.09239321093879</south>
        <east>19.59960937500000</east>
        <west>19.55566406250000</west>
      </LatLonAltBox>
      <Lod>
        <minLodPixels>128</minLodPixels>
        <maxLodPixels>-1</maxLodPixels>
      </Lod>
    </Region>
    <GroundOverlay>
      <drawOrder>26</drawOrder>
      <Icon>
        <href>2774.png</href>
      </Icon>
      <LatLonBox>
        <north>50.12057809796008</north>
        <south>50.09239321093879</south>
        <east>19.59960937500000</east>
        <west>19.55566406250000</west>
      </LatLonBox>
    </GroundOverlay>
</Document>
</kml>