<?xml version="1.0" encoding="utf-8"?>
<kml xmlns="http://www.opengis.net/kml/2.2">
  <Document>
    <name>13/4550/2775.kml</name>
    <description></description>
    <Style>
      <ListStyle id="hideChildren">
        <listItemType>checkHideChildren</listItemType>
      </ListStyle>
    </Style>
    <Region>
      <LatLonAltBox>
        <north>50.09239321093879</north>
        <south>50.06419173665910</south>
        <east>19.99511718749999</east>
        <west>19.95117187499999</west>
      </LatLonAltBox>
      <Lod>
        <minLodPixels>128</minLodPixels>
        <maxLodPixels>-1</maxLodPixels>
      </Lod>
    </Region>
    <GroundOverlay>
      <drawOrder>26</drawOrder>
      <Icon>
        <href>2775.png</href>
      </Icon>
      <LatLonBox>
        <north>50.09239321093879</north>
        <south>50.06419173665910</south>
        <east>19.99511718749999</east>
        <west>19.95117187499999</west>
      </LatLonBox>
    </GroundOverlay>
</Document>
</kml>